Name;Nennform;Dat. (Text);Datierung;Geo. Bez.;Beruf / Tätigkeit;Typ;Biographie;GND Link;Quelle EM;ID EM;Geo_Verwaltungsgebiet;Geo_Sitz;Geo_Regierungssitz;Geo_Amtssitz;Geo_without_details;Geo_Sterbeort;Geo_Sammelgebiet;Geo_Wirkungsort;Geo_Reiseorte;Geo_historische Bezeichnung;Geo_Studienort;Geo_Geburtsort;Geo_heutige Bezeichnung;Geo_Residenz;Geo_Ausbildungsort;Geo_Wohnort;Geo_Tätigkeitsort;Geo_Gründungsort;Geo_Bezug;Geo_Standort;Geo_heutige Zuordnung;Geo_Kunsthandelsort;Geo_Aufenthaltsort;geonameId;latitude;longitude
"""Frau Lehrer in Bailleul""";"""Frau Lehrer in Bailleul""";1905;Datum erste Erwähnung: 1905, Erwerbungsvorgang;"Aufenthaltsort: Bailleul; Sammelgebiet: Neuguinea";Veräußerin;Person;;;Nachweis aus dem Inventar I, DS bearb. B. Gliesmann;105504;;;;;;;Neuguinea;;;;;;;;;;;;;;;;Bailleul;2082514;-5;140
"""Kameradschaft"" Wohlfahrtsgesellschaft";"""Kameradschaft"" Wohlfahrtsgesellschaft";1914;Datum erste Erwähnung: 1914, Erwerbungsvorgang;"Standort: Berlin; Sammelgebiet: Ozeanien";;Körperschaft;;;Nachweis aus dem Inventar IV, DS bearbeitet E. Maluche, DS bearb. B. Gliesmann;368609;;;;;;;Ozeanien;;;;;;;;;;;;;Berlin;;;;6255151;-18.31281;138.51562
"""Kosmos"", Naturhistorisches Institut (Hermann Rolle)";"""Kosmos"", Naturhistorisches Institut (Hermann Rolle)";"1916; 1912";"Datum letzte Erwähnung: 1916, Erwerbungsvorgang; Datum erste Erwähnung: 1912, Erwerbungsvorgang";"Sitz: Berlin; Sammelgebiet: Gilbert-Inseln; Sammelgebiet: Neu-Mecklenburg [...]";;Körperschaft;Kurzbiographie: ab 1915 Inhaber Arthur Speyer*;;"DS bearb. B. Gliesmann
Nachweis aus dem Inventar IV, erg. E. Maluche

*Hinweis http://historischesarchivkoeln.de, Zugriff 13.8.2014";357669;;Berlin;;;;;['Gilbert-Inseln', 'Neu-Mecklenburg [...]'];;;;;;;;;;;;;;;;;;;
"""Sultanin von Buruku""";"""Sultanin von Buruku""";1898;Datum erste Erwähnung: 1898, Erwähnung im Aktenvorgang;;;Person;;;Nachweis aus dem Vorgang I B 20 Afrika, E 1119/1898, DS bearb. B. Gliesmann;380682;;;;;;;;;;;;;;;;;;;;;;;;3539557;22.1775;-79.22056
[Si]netteman, J.F.;J.F. [Si]netteman;1905;Datum erste Erwähnung: 1905, Erwerbungsvorgang;Tätigkeitsort: Rotterdam (Niederlande);Veräußerer, Direktor des Städtischen Museums für Völkerkunde, Rotterdam;Person;;;"Nachweis aus dem Inventar I, DS bearb.  
B. Gliesmann";408569;;;;;;;;;;;;;;;;;Rotterdam (Niederlande);;;;;;;3539557;22.1775;-79.22056
1. Schlesische Kolonialausstellung;1. Schlesische Kolonialausstellung;1907;Existenzdaten: 1907, Erwähnung in der Korrespondenz;Standort: Tarnowitz (?);;Sozietät;;;Nachweis aus dem Vorgang  E 1869/1907 (I B 78 Afrika), DS bearb. B. Gliesmann;405199;;;;;;;;;;;;;;;;;;;;Tarnowitz (?);;;;3539557;22.1775;-79.22056
2. Dänische Expedition (Ostgrönland);2. Dänische Expedition (Ostgrönland);1892;Existenzdaten: 1892;Sammelgebiet: Ostgrönland;;Körperschaft;;;Nachweis aus dem Inventar I, DS bearb. B. Gliesmann;355248;;;;;;;Ostgrönland;;;;;;;;;;;;;;;;;;;
7. Städtische Höhere Mädchenschule zu Berlin;7. Städtische Höhere Mädchenschule zu Berlin;1907;Datum erste Erwähnung: 1907, Vorgang;Standort: Berlin;;Körperschaft;;;"Nachweis aus dem Vorgang E 2334/1907 (IB 78 Afrika/Kriegsbeute) - Tanzania-Projekt, DS bearb. B. Gliesmann

https://www.deutsche-digitale-bibliothek.de/item/ZF6SIZMTQBEW4NMDLULAEW6B4KNQK65R";405595;;;;;;;;;;;;;;;;;;;;Berlin;;;;3539557;22.1775;-79.22056
A. Asher & Comp.;A. Asher & Comp.;"1859; 1905";"Datum erste Erwähnung: 1859, Korrespondenz; Datum letzte Erwähnung: 1905, Korrespondenz";Standort: Berlin;;Körperschaft;;;Nachweis aus den Vorgängen , DS bearb. B. Gliesmann;300230;;;;;;;;;;;;;;;;;;;;Berlin;;;;3539557;22.1775;-79.22056
Abbot, W.H.;W.H. Abbot;1902;Datum erste Erwähnung: 1902, Erwerbungsvorgang;Sammelgebiet: Collingwood Bay (Britisch Papua Neuguinea);Sammler, Missionar;Person;;;"Nachweis aus Inventar I DS bearb. B. Gliesmann
Im Hauptkatalog bei VI 21470 ""Missionar Abbot"", davor ""W.H. Abbot"".";401825;;;;;;;Collingwood Bay (Britisch Papua Neuguinea);;;;;;;;;;;;;;;;;;;
Abeking <Frau>;Frau Abeking;"1902; 1911";"Datum erste Erwähnung: 1902, Erwerbungsvorgang; Datum letzte Erwähnung: 1911, Erwerbungsvorgang";"Wohnort: Halensee; Sammelgebiet: Südafrika";Frau des Sanitätsrats;Person;;;"Nachweis aus dem Inventar I und Bürojournal, DS bearb. B. Gliesmann

Inhalt aus Inventar III/III Kopie E. Maluche";1760;;;;;;;Südafrika;;;;;;;;;Halensee;;;;;;;;953987;-29;24
Abel, P.J.;P.J. Abel;"1895; 1905";"Datum erste Erwähnung: 1895, Erwerbungsvorgang; Datum letzte Erwähnung: 1905, Erwerbungsvorgang";"Aufenthaltsort: Bismarck-Archipel; Aufenthaltsort: Salzburg (Österreich); Sammelgebiet: Gabun [...]";Sammler, Missionar;Person;Kurzbiographie: War längere Zeit auf dem Bismarck-Archipel.*;;"Nachweis aus dem Inventar I und aus dem Vorgang I B 14 Afrika, E 471/1895, DS bearb. B. Gliesmann

* Angabe und Absendeort Salzbug aus E 450/1905 (I B 32 Afrika) entnommen";2582;;;;;;;Gabun [...];;;;;;;;;;;;;;;;['Bismarck-Archipel', 'Salzburg (Österreich)'];2400553;-1;11.75
Abramowsky;Abramowsky;1893;Datum erste Erwähnung: 1893, Erwerbungsvorgang;Aufenthaltsort: Moskau (Russland);Veräußerer;Person;;;Nachweis aus dem Inventar I, DS bearb. B. Gliesmann;408376;;;;;;;;;;;;;;;;;;;;;;;Moskau (Russland);3539557;22.1775;-79.22056
Abteilung der Königlich Preußische Landesaufnahme;Abteilung der Königlich Preußische Landesaufnahme;"1903; 1910";"Datum erste Erwähnung: 1903; Datum letzte Erwähnung: 1910, Erwähnung im Erwerbungsvorgang";;;Körperschaft;"Kurzbiographie: Auszug wikipedia-Artikel: Nebenetat des Großen Generalstabs, der für die Herstellung von topographischen Kartenwerken und die dazu notwendigen Vermessungsarbeiten für das Deutsche Reich (außer Bayern) verantwortlich war.
Die Preußische Landesaufnahme wurde am 1. Januar 1875 durch Einrichtung der Stelle „Chef der Landesaufnahme“ unter Zusammenfassung mehrerer schon existierender Teile des Großen Generalstabs geschaffen. Über das Arbeitsprogramm entschied das 1870 gegründete Zentraldirektorium der Vermessungen im Preußischen Staate. Die Vielfalt der Einzelsparten und die Anforderungen an die Genauigkeit gingen weit über den militärischen Bedarf hinaus. ";;"Nachweis aus dem Vorgang I B 48 Afrika, E 349/1910, DS bearb. B. Gliesmann (Eintrag Kurzbiogr. aus dem Wikipedia-Artikel:  https://de.wikipedia.org/wiki/Preu%C3%9Fische_Landesaufnahme_(Beh%C3%B6rde), Stand 27. März 2020)

Hinweis:
http://de.wikipedia.org/wiki/Preu%C3%9Fische_Landesaufnahme_%28Beh%C3%B6rde%29, Zugriff 18.3.2012, BG";380484;;;;;;;;;;;;;;;;;;;;;;;;3539557;22.1775;-79.22056
Abu Bakar;Abu Bakar;1881;Datum erste Erwähnung: 1881, Zeitpunkt der Erwerbung;Sitz: Johore;Veräußerer, Maharaja von Johore;Person;;;"Nachweis aus dem Inventar I, DS bearb. B. Gliesmann

Hinweis auf Artikel (mit Porträt): http://en.wikipedia.org/wiki/Abu_Bakar_of_Johor";397062;;Johore;;;;;;;;;;;;;;;;;;;;;;3539557;22.1775;-79.22056
Achelis-Bremm, Th.;Th. Achelis-Bremm;1910;Datum erste Erwähnung: 1910, Erwerbungsvorgang;;Veräußerer/in;Person;;;Nachweis aus dem Inventar I A, DS bearbeitet von B. Weiss, DS bearb. B. Gliesmann;404124;;;;;;;;;;;;;;;;;;;;;;;;3539557;22.1775;-79.22056
Adalbert von Preußen;Adalbert Prinz von Preußen;"29.10.1811 - 6.6.1873; 1852";"Lebensdaten: 29.10.1811 - 6.6.1873; Datum erste Erwähnung: 1852, Unterzeichnet Verzeichniss zum Erwerbungsvorgang Slg. Waldemar v. Preußen";"Geburtsort: Berlin; Sterbeort: Karlsbad (Karlovy Vary)";Begründer der Marine, Admiral und Oberbefehlshaber;Person;Kurzbiographie: Begründer der Marine 1840 - 1873.;;"Nachweis im Vorgang I B 1 Asien, E 1932/1852, DS bearb. B. Gliesmann

http://www.deutsche-schutzgebiete.de/prinz_adalbert_von_preussen_1811.htm
http://de.wikipedia.org/wiki/Adalbert_von_Preu%C3%9Fen
http://www.bundesarchiv.de/aktuelles/aus_dem_archiv/galerie/00141/index.html?index=0&id=0&nr=3";313731;;;;;;Karlsbad (Karlovy Vary);;;;;;Berlin;;;;;;;;;;;;3539557;22.1775;-79.22056
Adalbert von Preußen;Adalbert Prinz von Preußen;"1884 - 1948; 1916";"Lebensdaten: 1884 - 1948; Datum erste Erwähnung: 1916, Erwerbungsdatum";"Geburtsort: Potsdam; Sterbeort: La Tour-de-Peilz (Schweiz)";Veräußerer, Marineoffizier;Person;Kurzbiographie: Adalbert wurde als dritter Sohn Kaiser Wilhelms II. und seiner Gemahlin Kaiserin Auguste Viktoria.*;http://d-nb.info/gnd/116006331;"Nachweis aus dem Inventar I A, DS bearb. B. Gliesmann, Vorgang:

GND-Nachweis über Katalog der Deutschen Nationalbibliothek (DNB), Namensansetzung (eigentl. Name), Lebensdaten (nur Jahresangaben),
ergänz. Tätigkeiten/Funktion, Geburts-/Sterbeort 
Quelle: PND, wikipedia
https://de.wikipedia.org/wiki/Adalbert_von_Preu%C3%9Fen_(1884%E2%80%931948)*";405079;;;;;;La Tour-de-Peilz (Schweiz);;;;;;Potsdam;;;;;;;;;;;;3539557;22.1775;-79.22056
Adam <Dr.>;Dr. Adam;"1920; 1922";"Datum erste Erwähnung: 1920, Erwerbungsvorgang; Datum letzte Erwähnung: 1922, Erwerbungsvorgang";;Veräußerer;Person;;;Nachweis aus dem Inventar I A, DS bearb. B. Gliesmann;1094;;;;;;;;;;;;;;;;;;;;;;;;3539557;22.1775;-79.22056
Adam, L.;L. Adam;1893;Datum erste Erwähnung: 1893, Erwerbungsvorgang;;Veräußerer;Person;;;Nachweis aus dem Inventar I, DS bearb. B. Gliesmann;379001;;;;;;;;;;;;;;;;;;;;;;;;3539557;22.1775;-79.22056
Adam, L.;L. Adam;1921;Datum erste Erwähnung: 1921, Erwerbungsvorgang;"Aufenthaltsort: Berlin; Sammelgebiet: Westafrika, Elfenbeinküste";Veräußerer;Person;;;Nachweis aus dem Inventar III / III Kopie, E.Maluche, DS bearb. B. Gliesmann;380518;;;;;;;Westafrika, Elfenbeinküste;;;;;;;;;;;;;;;;Berlin;;;
Adam, Leonhard;Leonhard Adam;"1922; 1935; 16.12.1891 - 9.9.1960";"Datum erste Erwähnung: 1922, betr. Erwerbungsvorgang; Datum letzte Erwähnung: 1935, Erwerbungsvorgang; Lebensdaten: 16.12.1891 - 9.9.1960";"Geburtsort: Berlin; Sterbeort: Bonn; Studienort: Berlin [...]";Sammler, Anthropologe/Ethnologe, Jurist/Rechtsanwalt, Amtsgerichtsrat;Person;"Kurzbiographie: Sohn des Kaufmanns Meinhardt Michael Adam und von Katharina Clare Rosa. Besuch des Königl. Friedrich Wilhelms-Gymnasium, Zeugnis der Reife Ostern 1910. Studiert ab dem 14.4.1910 an der Friedrich-Wilhelms-Universität Berlin bis zum 02.12.1913 und Greifswald Rechtswissenschaft, und praktisches Recht. 1914 erste jurist. Prüfung am kgl. Kammergericht Berlin, mit der Ernennung zum Referendar im Bezirk des Kammergerichts. Als Unteroffizier der Ersatz-Abteilung 1 des Kraftfahr-Bataillons ab dem 13.10.1914. Nach Beendigung der militär. Ausbildung zur Assistenz des Gerichtsoffiziers abkommandiert
Am 5. Juni 1916 mündl. Doktorprüfung vor der Hohen Rechts- und Staatswiss. Fakultät der Univ. Greifswald. Die Promotion zum Dr. jur. erfolgte am 26.09.1916. 
L. Adam wird 1917 mit der Sammlung von ""Stammesrechten"", zuerst im Lager Wünsdorf, später in drei rumänischen Kriegsgefangenenlager bis zur Räumung im November 1918.
1923 bestand Dr. L. Adam im Justizministerium zu Berlin die juristische große Staatsprüfung; 1928 wurde er Amtsgerichtsrat. Seit 1930 war er Dozent für ethn. Rechtsforschung am Institut für Auslandsrecht, zugleich auch Mitglied der Sachverständigenkommission für die Sammlungen des Museums für Völkerkunde Berlin.
Publiziert und forscht mit Hilfe von Feldstudien zu ethnologischen Themen wie Religion, Kunst und welche rechtliche Fragen berrühren. Wird 1933 als Jude aus allen Berufen ausgeschlossen und in den ""Ruhestand"" versetzt. Nach einem vorübergehenden Aufenthalt in England 1933/34, verlässt er 1938 Deutschland engültig und emigriert nach London und lehrt bis zu seiner Inhaftierung am 16.5.1940 an der dortigen Universität. Es folgt die Verschickung nach Australien. Am 29.5.1942 wird er aus dem Gewahrsam entlassen. Er wird dort auf Anregung von R.R. Maretts im Mai 1942 an einem Forschungsprojekt (Major Research Scholarship) an der Universität Melbourne und dem Nationalmuseum über die Steinwerkzeuge der Aborigines beteiligt. Am 5.6.1943 heiratet er die Musikerin Julia Mary Baillie. 1947 wird er zum Lecturer für Völkerkunde ernannt, gleichzeitig mit dem Auftrag, ein eth. Museum an der Universität Melbourne aufzubauen.
Kurator der ethnologischen Sammlung am Queen's College, University of Melbourne bis zu seinem Ableben. Nach der Einbürgerung am 21.2.1956, reiste er 1957 nach Deutschland, um die Ehrendoktorwürde der Universität Bonn zu erhalten.";http://d-nb.info/gnd/129397253;"Nachweis aus dem Inventar V

Author: Greg Dening, Adam, Leonhard (1891 - 1960) Australian Dictionary of Biography, Volume 13, Melbourne University Press, 1993, pp 8-9. -> Australian Dictionary of Biography Online, Copyright 2006, www.adb.online.anu.edu.au

GND-Nachweis über Katalog der Deutschen Nationalbibliothek (DNB), ergänz. Tätigkeiten/Funktion, 
und Lit./Werke
Quelle: LCAuth; Biogr. H Emigr.; Wikipedia

Humboldt Universität Berlin, Archiv Unterlagen in Kopie zur Studienzeit Leonard Adam. Kopie Abgangszeugnis der kgl. Friedrich-Wilhelms-Universität Berlin. Kopien aus der Promotionsakte der Univ. Greifswald.
(Dossier zum Auss.projekt)

weitere biogr. Angaben zum Lebenslauf:
Hrsg. der Zeitschrift für vgl. Rechtswissenschaft, Bd. 59.
Glückwunsch/Ehrung zum 65. Geburtstag am 16.12.1956

s.a. Artikel unter:
http://de.wikipedia.org/wiki/Leonhard_Adam, Zugriff 01.12.2012

DS bearb. B. Gliesmann";135;;;;;;Bonn;;;;;Berlin [...];Berlin;;;;;;;;;;;;3539557;22.1775;-79.22056
Adametz, Karl;Karl Adametz;"1907; 1913";"Datum erste Erwähnung: 1907, Erwerbungsvorgang; Datum letzte Erwähnung: 1913, Erwerbungsvorgang";"Tätigkeitsort: Kolonie/""Schutzgebiet"", Kamerun; Sammelgebiet: Bezirk, Bamenda (Kamerun)";Sammler, Hauptmann, Oberleutnant;Person;Kurzbiographie: u.a. zoologische Erforschung des Schutzgebietes Kamerun.;;"Nachweis aus dem Inventar III / III Kopie, DS bearb. B. Gliesmann

Deutsches Kolonial-Lexikon (1920), Band III, S. 764 ff. unter http://www.stub.bildarchiv-dkg.uni-frankfurt.de/Bildprojekt/Lexikon/

Siehe auch Hoffmann, Florian 2007, ""Okkupation und Militärverwaltung in Kamerun"" Teil II: 64f (bearb. M. Oberhofer)

Inhalt aus Inventar III / III Kopie, E. Maluche";2584;;;;;;;Bezirk, Bamenda (Kamerun);;;;;;;;;;"Kolonie/""Schutzgebiet"", Kamerun";;;;;;;;;
Administr. Marhicado;Administr. Marhicado;1895;Datum erste Erwähnung: 1895, Vorgang;Sitz: Bolivien (?);Vermittler Inst.;Sozietät;;;Nachweis aus dem Vorgang E 112/1895 (I c),  DS bearb. B. Gliesmann;90732;;Bolivien (?);;;;;;;;;;;;;;;;;;;;;;3539557;22.1775;-79.22056
Adriani;Adriani;um 1897;Datum erste Erwähnung: um 1897, Erwerbungsvorgang;;Sammler;Person;"Kurzbiographie: Sohn von Ds. M.A. Adriani, Minister und Direktor der Utrechter Missiongsgesellschaft.
Neffe von J.H. Gunning, einflussreicher Theologieprofessor. Der andere Onkel J.W. Gunning war Direktor der Niederländischen Missionsgesellschaft und deren Missionsschule seit 1897.
Adriani studiert ab 1886 Theologie an der Universität Utrecht. Er wechselt 1887 nach Leiden und promoviert 1893 in ""East Indian Languages and Literature"". Unterstützung der Mission durch die Niederländische Missionsgesellschaft auf und die Niederländische Bibelgesellschaft Nederlandsch Bijbelgenootschap (Dutch Bible Society) auf Celebes durch Prof. Chantepie de la Saussaye und den stellv. Resident auf Manado G.W.W.C. Baron van Hoëvell. Zwei Missionare wurden für die Arbeit im feld ausgeblidet. Albert Chrstiaan Kruyt (Kruijt) (1869-1949) und Nicolaüs Adriani. Arbeiten in Mittel Celebes bei den Toradjan*.";;"Sammler Adriani im Inventar nicht genannt.
Nachweis aus der Objektdokumentation (HK, KK). DS bearb. B. Gliesmann

Colonial 'reformation' in the Highlands of Central Sulawesi, Indonesia, 1892-1995
von Albert Schrauwers, University of Toronto Press 2000, S. 53/54 - hierfür genutzte Quelle Dr. H. Kraemer ed. Dr. N. Adriani, Amsterdam: H.J. Paris 1935, S. 12-13; 16, 19

* Christian Mission in the Twentieth Century: 
Timothy Yates, Cambridge University Press 1996, S. 107

Online Ressourcen über http://books.google.de, Zugriff 5.7.2012

http://records.ancestry.com/Nicolaus_Adriani_records.ashx?pid=143351146, Zugriff 5.7.2012
Lebendaten, Geb./Sterbeort";9133;;;;;;;;;;;;;;;;;;;;;;;;3539557;22.1775;-79.22056
Afrikanische Gesellschaft;Afrikanische Gesellschaft;"4.1873 - 4.1878; 1874";"Existenzdaten: 4.1873 - 4.1878; Datum erste Erwähnung: 1874";Sitz: Berlin;Veräußerer;Körperschaft;"Kurzbiographie: Auf Anregung des Vorstandes der Gesellschaft für Erdkunde zu Berlin, insbesondere ihres Vorsitzenden, des Prof. Dr. Bastian, Direktor des Museums für Völkerkunde, und Dr. G. Neumayers, des späteren Begründers der Seewarte in Hamburg, wurde mit Hilfe von Aufrufen an die Kaufmannschaft, die naturwissenschaftlichen und die geographischen Vereine Deutschlands im April 1873 die ""Deutsche Gesellschaft zur Erforschung Äquatorialafrikas"", kurz die ""Afrikanische Gesellschaft"", gegründet, deren Zweck die wissenschaftliche Erschließung der noch unbekannten Gebiete Zentralafrikas bilden und deren Sitz in Berlin sein sollte. 

Aus Mitgliederbeiträgen, den Zuwendungen deutscher Fürsten und der freien Hansastädte sowie aus den Beihilfen, die das Deutsche Reich gewährte, hat die Gesellschaft die Loango-Expedition (1873/75) unter Güßfeldt, Falkenstein und Pechuel-Loesche nach den Gebieten nördlich der Kongomündung, O. Lenz nach dem Ogowe- und Gabungebiet, den Ornithologen Reichenow  nach Kamerun, Pogge nach Angola, v. Bary zur Sahara entsandt.

In Berlin wird am 18. Dez. 1876 die ""Deutsche Afrikanische Gesellschaft"" zu dem Zweck, ""auf die Erschließung Afrikas für Kultur, Handel und Verkehr sowie auf die friedliche Beseitigung des Sklavenhandels hinzuwirken"" ins Leben gerufen. 

Da für zwei Gesellschaften, die ähnliche, und bis zu einem gewissen Grad gleiche Ziele verfolgten und in deren Vorständen meist die gleichen Personen saßen, erschien bald eine Verschmelzung der beiden genannten Vereine geboten. 

Am 29. April 1878 ging aus ihnen die ""Afrikanische Gesellschaft in Deutschland"" hervor.";;"Deutsches Kolonial-Lexikon (1920), Band I, S. 21 f unter http://www.ub.bildarchiv-dkg.uni-frankfurt.de/Bildprojekt/Lexikon

Auszug: http://de.wikipedia.org/wiki/Afrikanische_Gesellschaften
Deutsche Gesellschaft zur Erforschung Äquatorialafrikas

DS bearb. B. Gliesmann";337092;;Berlin;;;;;;;;;;;;;;;;;;;;;;3539557;22.1775;-79.22056
Afrikanische Gesellschaft in Deutschland;Afrikanische Gesellschaft in Deutschland;29.4.1878 - 1889 (?);Existenzdaten: 29.4.1878 - 1889 (?), [11. Dez. 1887 Auflösung der Gesellschaft];Sitz: Berlin;;Körperschaft;"Kurzbiographie: Am 29. April 1878 Verschmelzung der beiden Vereine ""Deutsche Afrikanische Gesellschaft"" und ""Deutsche Gesellschaft zur Erforschung Äquatorialafrikas"" zur ""Afrikanischen Gesellschaft in Deutschland"" aufgrund gemeinsamer Ziele, Vorstände und Mitglieder der Afrikaforschung.
Leitete bis 1889  [? 11. Dez. 1887 Auflösung der Gesellschaft] zahlreiche Unternehmungen zu den verschiedensten Teilen Afrikas in die Wege, hauptsächlich mit Hilfe der vom Bundesrat und dem Reichstag ""für die auf die Erschließung Inner- Afrikas gerichteten wissenschaftlichen Unternehmungen"" bewilligten Mittel, des sog. ""Afrikafonds"". Bsp. Expedition 1884-1886) zur  „Erforschung des südlichen Kongobeckens“. 1878 Auftrag der Afrikanischen Gesellschaft in Deutschland, Expedition Max Buchner  nach dem äquatorialen Westafrika in das Reich der Lunda. Hier sollte er im Namen von Kaiser Wilhelm I. Geschenke überbringen.";https://reconcile.gnd.network/gnd/10342-1;"Deutsches Kolonial-Lexikon (1920), Band I, S. 21 f. (www.ub.bildarchiv-dkg.uni-frankfurt.de);

DS bearb. B. Gliesmann";2586;;Berlin;;;;;;;;;;;;;;;;;;;;;;3539557;22.1775;-79.22056
Afrikanische Gesellschaft Rotterdam;Afrikanische Gesellschaft Rotterdam;1898;Datum erste Erwähnung: 1898;Sitz: Rotterdam;;Körperschaft;;;Nachweis aus dem Vorgang E 185/1898 (IB Afrika), DS bearb. B. Gliesmann;364498;;Rotterdam;;;;;;;;;;;;;;;;;;;;;;3539557;22.1775;-79.22056
Agaientz, Ph.;Ph. Agaientz;vor 1915;Nachweiszeit: vor 1915, Zeitpunkt der Erwerbung;Sammelgebiet: Land, Iran;;Person;;;Nachweis aus der Objektdokumentation (Aufdruck oder Signatur auf RS Fotografie ?), DS bearb. B. Gliesmann;99720;;;;;;;Land, Iran;;;;;;;;;;;;;;;;;6743580;37.9368;48.8486
Ägyptische Abteilung des Neuen Museums;Ägyptische Abteilung des Neuen Museums;"1895; 1885; 1850";"Datum letzte Erwähnung: 1895, Erwerbungsvorgang; Datum erste Erwähnung: 1885; Existenzdaten: 1850";Standort: Berlin;Veräußerer;Körperschaft;"Kurzbiographie: Das Ägyptische Museum ist eine der ältesten Abteilungen der ehemals königlichen Kunstsammlungen. 
Auf Empfehlung Alexander von Humboldts wurde 1828 eine ägyptische Abteilung unter König Friedrich Wilhelm III. gegründet. Die preußische Expedition nach Ägypten unter Karl Richard Lepsius 1842 - 1845 brachte von Mohamed Ali 1500 bedeutende Objekte nach Berlin. 1850 erhielt das Ägyptische Museum seinen Standort im eigens dafür erbauten Neuen Museum auf der Museumsinsel.

Seit 1850 erweiterten sich die Sammlungsbestände durch Ankäufe, Schenkungen und Grabungen. Die bedeutendste Grabung wurde von 1911 bis 1914 in Amarna durchgeführt, deren Fundstücke die Sammlung wesentlich bereicherten.";;"Nachweis aus dem Inventar I, DS bearb. B. Gliesmann

entnommen: http://www.aegyptisches-museum-berlin-verein.de/c01.php (Stand: 30.07.2010)";715;;;;;;;;;;;;;;;;;;;;Berlin;;;;3539557;22.1775;-79.22056
Ahrens, Herm.;Herm. Ahrens;1927;Datum erste Erwähnung: 1927, Erwerbungsvorgang;"Aufenthaltsort: San José de Costa Rica; Sammelgebiet: Costa Rica";Sammler, Konsul;Person;;;"Nachweis aus dem Inventar V, DS bearb. B. Gliesmann
Abgek. Vorname lt. Objektdokumentation (Karteikarte)";136;;;;;;;Costa Rica;;;;;;;;;;;;;;;;San José de Costa Rica;3624060;10;-84
Ahrens, John;John Ahrens;27.1.1927;Datum erste Erwähnung: 27.1.1927, Korrespondenz;"Brasilien; Tätigkeitsort: Cuyaba (Cuiabá); Bundesstaat, Matto Grosso";tätig am Deutschen Konsulat in Cuyaba;Person;;;Nachweis aus dem Vorgang I B 83 Max Schmidt, E 454/1927, DS bearb. B. Gliesmann;320183;;;;;['Brasilien', 'Bundesstaat, Matto Grosso'];;;;;;;;;;;;Cuyaba (Cuiabá);;;;;;;3539557;22.1775;-79.22056
Ahrensberg, H.;H. Ahrensberg;1906;Datum erste Erwähnung: 1906, Erwerbungsvorgang;"Aufenthaltsort: Caracas (Venezuela); Sammelgebiet: Venezuela";Sammler;Person;;;"Nachweis aus dem Inventar V, DS bearb. B. Gliesmann

Ergänzung aus Günther Hartmann in: ZfE, Bd. 100, Verl. Albert Limbach Braunschweig 1975, S. 316/321
DS bearb. A. Beyer";1762;;;;;;;Venezuela;;;;;;;;;;;;;;;;Caracas (Venezuela);3625428;8;-66
Akademie der Künste, Berlin;Akademie der Künste, Berlin;"11.07.1696; 10.12.1888";"Gründungsdatum: 11.07.1696; Datum erste Erwähnung: 10.12.1888, Korrespondenz";Standort: Berlin;;Körperschaft;;;DS angel. Dr. S. Nahser, DS bearb B. Gliesmann (Gründungsjahr: https://www.adk.de/de/akademie/325/, Zugriff 29.4.2021;1095;;;;;;;;;;;;;;;;;;;;Berlin;;;;3539557;22.1775;-79.22056
Akemeier;Akemeier;1893;Datum erste Erwähnung: 1893, Erwerbungsvorgang;;Veräußerer;Person;;;Nachweis aus dem Inventar I, DS bearb. B. Gliesmann;90733;;;;;;;;;;;;;;;;;;;;;;;;3539557;22.1775;-79.22056
Albers von;von Albers;"1902; 1898";"Datum letzte Erwähnung: 1902, Erwähnung in der Korrespondenz (Aktenvorgang); Datum erste Erwähnung: 1898, Erwerbungsvorgang";"Bezug: Königreich, Siam; heutige Bezeichnung: Thailand; heutige Bezeichnung: westlicher Teil von Kambodscha [...]";Veräußerer, Kanzler der Siamesischen Gesandtschaften zu Berlin;Person;;;DS bearb. B. Gliesmann;113402;;;;;;;;;;;;;['Thailand', 'westlicher Teil von Kambodscha [...]'];;;;;;Königreich, Siam;;;;;3539557;22.1775;-79.22056
Albers, Kurt;Kurt Albers;1901;Datum erste Erwähnung: 1901, Erwerbungsvorgang;Aufenthaltsort: Wladiwostok;tätig bei Kaiserlich deutsche Handelsagenten;Person;;;Nachweis aus dem Inventar I, DS bearb. B. Gliesmann;409092;;;;;;;;;;;;;;;;;;;;;;;Wladiwostok;3539557;22.1775;-79.22056
Albert, Carl Georg;Carl Georg Albert;1924;Datum erste Erwähnung: 1924, Erwerbungsvorgang;"Aufenthaltsort: Gut Seeburg; Sammelgebiet: Mexiko";Veräußerer;Person;;;Nachweis aus dem Inventar V, DS bearb. B. Gliesmann;409379;;;;;;;Mexiko;;;;;;;;;;;;;;;;Gut Seeburg;3996063;23;-102
Albrecht;Albrecht;"1919; 1892 (?)";"Datum letzte Erwähnung: 1919, Erwerbungsvorgang; Datum erste Erwähnung: 1892 (?), Erwähnung in der Korrespondenz (unsicher)";Aufenthaltsort: Berlin;Veräußerer;Person;;;"Nachweis aus dem Inventar III (Abschrift), dort in Klammern gesetzt.
*Name ohne Kürzel, Vorname im Adressbuch, DS bearb. B. Gliesmann";305214;;;;;;;;;;;;;;;;;;;;;;;Berlin;3539557;22.1775;-79.22056
Albrecht, P.;P. Albrecht;"1910; 1908";"Datum erste Erwähnung: 1910, Vorgang; Datum erste Erwähnung: 1908, Erwerbungsvorgang, Korrespondenz";"Aufenthaltsort: Bremen; Aufenthaltsort: Posen";General-Major z.D. und Brigadekommandeur;Person;;;Nachweis aus dem Nachweis aus dem Inventar I A, dem EJ zu den Vorgängen I B Asien + Adressbuch, DS bearb. B. Gliesmann;118713;;;;;;;;;;;;;;;;;;;;;;;['Bremen', 'Posen'];3539557;22.1775;-79.22056
Alexander, Eugen;Eugen Alexander;† 1913;Todesdatum: † 1913;"Tätigkeitsort: Sankt Petersburg (Russland); Sammelgebiet: Sibirien";Kunsthändler;Person;"Kurzbiographie: Ehemann von Frederike Alexander und Miteigner einer Antiquitätenhandlung in St. Petersburg.
Beide mitfinanzierten Expeditionen nach Sibirien und vermittelten Sammlungen nach Europa (St. Petersburg, Stuttgart, Berlin gewiss, ev. auch an andere Museen ?).";;"Nachweis aus dem Vorgang, E 184/1929 (IB 81 Asien) - Einsicht Dr. Nahser siehe Bem., DS bearb. B. Gliesmann

Todesjahr nach Quelle Kasten, Erich; Findeisen, Janina, Schamanen und Heiler. Stuttgart 200(9). Anm. SN";401962;;;;;;;Sibirien;;;;;;;;;;Sankt Petersburg (Russland);;;;;;;2016590;60;100
Alexander, Friederike;Friederike Alexander;"1923; 1929";"Datum erste Erwähnung: 1923, Erwerbungsvorgang; Datum letzte Erwähnung: 1929, Erwerbungsvorgang";"Tätigkeitsort: Sankt Petersburg (Russland); Aufenthaltsort: Weißenfels; Wohnort: Berlin [...]";Veräußerin, Kunsthändlerin;Person;"Kurzbiographie: Ehefrau von Eugen Alexander und Miteignerin einer Antiquitätenhandlung in St. Petersburg.
Beide mitfinanzierten Expeditionen nach Sibirien und vermittelten Sammlungen nach Europa (St. Petersburg, Stuttgart, Berlin gewiss, ev. auch an andere Museen?).
Verkaufte im Jahre 1929 eine gr. Sammlung von 370 Objekten der Kolyma-Jakuten an das Staatl. Museum für Völkerkunde Berlin - (zuvor wohl auch an das Linden in Stuttgart, vgl. .Lit. 2009. Anm. S. Nahser 7.3.2016.)";;"Nachweis aus dem Inventar I A, DS bearb. B. Gliesmann
(s. Bem.), bearb. Dr. S. Nahser, 10.8.2009";99506;;;;;;;;;;;;;;;;Berlin [...];Sankt Petersburg (Russland);;;;;;Weißenfels;3539557;22.1775;-79.22056
Alfaro, Anastasio;Anastasio Alfaro;1910;Datum erste Erwähnung: 1910, Erwähnung im EJ zum Vorgang;Aufenthaltsort: San José;;Person;;;Nachweis aus dem Bürojournal und Adressregister zum Vorgang  DS bearb. B. Gliesmann;376734;;;;;;;;;;;;;;;;;;;;;;;San José;3539557;22.1775;-79.22056
Alfred Ruckenbrod;Alfred Ruckenbrod;ca. 1909 - ca. 1923;Existenzdaten: ca. 1909 - ca. 1923, hier: vermutlich auch früher schon tätig;Sitz: Berlin;Kunstkupferdruckerei/Photogravur;Körperschaft;;;"Nachweis aus dem Inventar I A und dem Vorgang E 1295/1913 (IB Asien)

www.gallileus.info

DS bearb S.Nasher (01/2006) und B. Gliesmann";1548;;Berlin;;;;;;;;;;;;;;;;;;;;;;3539557;22.1775;-79.22056
Alfred von Sachsen-Coburg und Gotha;Alfred von Sachsen-Coburg und Gotha;1844 - 1900;Lebensdaten: 1844 - 1900;;duke of Edinbough;Person;"Kurzbiographie: Sohn von Queen Victoria, Bruder von Eduard VII, König von Großbritannien (1901-1910).
Bereiste als Angehöriger der britischen Marine zahlreiche Gebiete.
Großadmiral der britischen Flotte. Diese Sammlung vermachte seine Frau der Coburger Bevölkerung.";;Nachweis aus dem Vorgang E 942/1906, I B 37 Afrika (Einsicht), DS bearb. B. Gliesmann;378630;;;;;;;;;;;;;;;;;;;;;;;;3539557;22.1775;-79.22056
Allenstein, A.;A. Allenstein;1899;Datum erste Erwähnung: 1899, Erwerbungsvorgang;Sammelgebiet: Neu-Britannien;Sammler;Person;;;"Nachweis aus dem Inventar I, DS bearb. B. Gliesmann
als Sammler auf KK ausgewiesen";397226;;;;;;;Neu-Britannien;;;;;;;;;;;;;;;;;2089703;-5.74307;150.77156
Alten, von;von Alten;"1889; 1894";"Datum erste Erwähnung: 1889, Korrespondenz; Datum letzte Erwähnung: 1894, Erwerbungsvorgang";"Sammelgebiet: Kolonie/""Schutzgebiet"", Deutsch-Ostafrika";Sammler, Major;Person;;;Nachweis aus dem Inventar I, DS bearb. B. Gliesmann;2590;;;;;;;"Kolonie/""Schutzgebiet"", Deutsch-Ostafrika";;;;;;;;;;;;;;;;;;;
Alter, Ernst;Ernst Alter;1910;Datum erste Erwähnung: 1910, Erwerbungsvorgang;Aufenthaltsort: Groß Lichterfelde;Veräußerer;Person;;;Nachweis aus dem Inventar I A, DS bearbeitet von B. Weiss, DS bearb. B. Gliesmann;403414;;;;;;;;;;;;;;;;;;;;;;;Groß Lichterfelde;3539557;22.1775;-79.22056
Altertumsverein (Paderborn);Altertumsverein Paderborn;1888;Datum erste Erwähnung: 1888, Korrespondenz, Vorgang;Sitz: Paderborn;;Sozietät;;https://reconcile.gnd.network/gnd/6519468-8;Nachweis aus dem Vorgang E 1103/1888 (Akte V), DS bearb. B. Gliesmann;404184;;Paderborn;;;;;;;;;;;;;;;;;;;;;;3539557;22.1775;-79.22056
Alvarado;Alvarado;1897;Datum erste Erwähnung: 1897, Zeitpunkt Erwerbungsvorgang;;Sammler;Person;;;Nachweis aus der Objektdokumentation (KK), DS bearb. B. Gliesmann;397000;;;;;;;;;;;;;;;;;;;;;;;;3539557;22.1775;-79.22056
Alvensleben, von;von Alvensleben;1892;Datum erste Erwähnung: 1892, Vorgang;;;Person;;;Nachweis aus dem Vorgang E 1211/1892 (IB 10 Afrika),  DS bearb. B. Gliesmann;409309;;;;;;;;;;;;;;;;;;;;;;;;3539557;22.1775;-79.22056
Ambrosetti, Juan B.;Juan B. Ambrosetti;"1902; 1901";"Datum letzte Erwähnung: 1902, Erwerbungsvorgang; Datum erste Erwähnung: 1901, Erwerbungsvorgang";"Aufenthaltsort: Buenos Aires (Argentinen); Sammelgebiet: Argentinien";Veräußerer;Person;;;Nachweis aus dem Inventar I, DS bearb. B. Gliesmann;90534;;;;;;;Argentinien;;;;;;;;;;;;;;;;Buenos Aires (Argentinen);3865483;-34;-64
American Museum of Natural History, New York;American Museum of Natural History, New York;"1869; 1898; 1915";"Gründungsdatum: 1869; Datum erste Erwähnung: 1898, Abgabevorgang; Datum letzte Erwähnung: 1915, Erwerbungsvorgang, ohne Nr.";Standort: New York (Vereinigte Staaten, USA);;Körperschaft;;https://reconcile.gnd.network/gnd/1007948-8;Nachweis aus dem Inventar I+V, DS DS bearb. B. Gliesmann;141;;;;;;;;;;;;;;;;;;;;New York (Vereinigte Staaten, USA);;;;3539557;22.1775;-79.22056
Amthor;Amthor;1911;Datum erste Erwähnung: 1911, Erwerbungsvorgang;Wohnort: Berlin;Veräußerer, Ingenieur;Person;;;Nachweis aus dem Inventar I A, DS bearbeitet von B. Weiss, DS bearb. B. Gliesmann;1098;;;;;;;;;;;;;;;;Berlin;;;;;;;;3539557;22.1775;-79.22056
Anatomisches Institut Berlin;Anatomisches Institut Berlin;1898;Datum erste Erwähnung: 1898, Erwähnung im Aktenvorgang;Standort: Berlin;;Körperschaft;;;Nachweis aus dem Vorgang I B 20 Afrika, E 1120/1898, DS bearb. B. Gliesmann;377457;;;;;;;;;;;;;;;;;;;;Berlin;;;;3539557;22.1775;-79.22056
Anders <Dr.>;Dr. Anders;1912;Datum erste Erwähnung: 1912, Erwerbungsvorgänge, Korrespondenz;Wohnort: Liegnitz (Schlesien);Veräußerer, Assistenz-Arzt;Person;Kurzbiographie: Um 1912 tätig im Lazarett des Grenadier-Regiments 7 (Westpreußisches), König-Wilhelm I.;;"Nachweis aus dem Vorgang E 57/1912 (I B 51  Afrika), DS bearb. B. Gliesmann
(im Adressbuch 1912 ohne weitere Angaben)

Nachweis aus dem Inventar III / III Kopie, DS bearb. E. Maluche";332094;;;;;;;;;;;;;;;;Liegnitz (Schlesien);;;;;;;;3539557;22.1775;-79.22056
Anders, C.;C. Anders;1912;Datum erste Erwähnung: 1912, Erwerbungsvorgänge;"Wohnort: Berlin; Wohnort: Wilmersdorf; Sammelgebiet: Ostafrika";;Person;;;"Nachweis aus dem Inventar III, DS bearb. B. Gliesmann
(im Adressbuch 1912 ohne weitere Angaben)

Nachweis aus dem Inventar III / III Kopie, DS bearb. E. Maluche";2593;;;;;;;Ostafrika;;;;;;;;;['Berlin', 'Wilmersdorf'];;;;;;;;7729889;-0.52734;36.51855
Anderson;Anderson;1897;Datum erste Erwähnung: 1897, Erwerbungsvorgang;;Veräußerer, Sammler (?);Person;;;Nachweis aus der Objektdokumentation (HK): Provenienzangabe aus dem Hauptkatalog VI, DS bearb. B. Gliesmann;320432;;;;;;;;;;;;;;;;;;;;;;;;3539557;22.1775;-79.22056
Anderson;Anderson;1904;Datum erste Erwähnung: 1904, Erwerbungsvorgang;Sammelgebiet: China;Veräußerer, Leutnant;Person;;;Nachweis aus dem Inventar I, DS  bearb. B. Gliesmann;406831;;;;;;;China;;;;;;;;;;;;;;;;;1814991;35;105
Andree, Richard;Richard Andree;"1888; 1901; 1835 - 1912";"Datum erste Erwähnung: 1888, Erwerbungsvorgang; Datum letzte Erwähnung: 1901, Erwähnung im Vorgang; Lebensdaten: 1835 - 1912";"Geburtsort: Braunschweig; Sterbeort: München; Tätigkeitsort: Leipzig [...]";Veräußerer, Geograf, Ethnologe, Kartograf, Verleger, Journalist;Person;"Kurzbiographie: 1893 bis 1903 Betreuung der Braunschweiger Völkerkundesammlung am Herzoglichen Museum zu Braunschweig (Städtisches Museum).
1873-1890 Leiter der kartographischen Anstalt von Velhagen und Klasing in Leipzig; seit 1890 in Heidelberg (1891-1903 Herausgeber des „Globus“ und 1904 bis 1912 in München).";http://d-nb.info/gnd/116309695;"Nachweis aus dem Inventar I, DS bearb. B. Gliesmann

GND-Nachweis über Katalog der Deutschen Nationalbibliothek (DNB), Namensansetzung, Lebensdaten (nur Jahresangaben),
ergänz. Tätigkeiten/Funktion, Geburts-/Sterbeort Wirkungssorte, akad. Titel.
und Lit./Werke
Quelle: LCAuth; CSBA (WBIS); DBA (WBIS)
NDB (Stand: 13.11.2014): http://www.deutsche-biographie.de/sfz974.html

erg. Tätigkeit: 
Die Afrika-​Sammlung des Städtischen Museums Braunschweig
https://www.about-africa.de/sammeln-bewahren-forschen-vermitteln/149-afrika-sammlung-staedtisches-museum-braunschweig
(Sammeln Bewahren Forschen Vermitteln, veröffentl.  25. Oktober 2008), Zugriff 27.1.2020

s.a. https://de.wikipedia.org/wiki/Richard_Andree(Holzstich von 1879 und Portraitfoto o. D.), Stand 20. Mai 2019";122744;;;;;;München;;;;;;Braunschweig;;;;;Leipzig [...];;;;;;;3539557;22.1775;-79.22056
Andresen;Andresen;1894;Datum erste Erwähnung: 1894, Erwerbungsvorgang;Aufenthaltsort: Sommerstedt;;Person;;;Nachweis aus dem Inventar I, DS bearb. B. Gliesmann;355263;;;;;;;;;;;;;;;;;;;;;;;Sommerstedt;3539557;22.1775;-79.22056
Andresen, B.;B. Andresen;1907;Datum erste Erwähnung: 1907, Korrespondenz;Aufenthaltsort: Palau;Spediteur (?);Person;;;aus dem Bürojournal, DS bearb. B. Gliesmann;314888;;;;;;;;;;;;;;;;;;;;;;;Palau;3539557;22.1775;-79.22056
Andrews, Edward M.;Edward M. Andrews;"1906; 1905";"Datum letzte Erwähnung: 1906, Erwerbungsvorgang; Datum erste Erwähnung: 1905, Erwerbungsvorgang, Korespondenz";"Aufenthaltsort: Bulawayo; Aufenthaltsort: Umtali; heutige Zuordnung: Simbabwe [...]";Sammler;Person;;;"Nachweis aus dem Vorgang, E 1845/1905, IB Afrika 34, DS bearb. B. Gliesmann

erg. aus dem Inventar III / III Kopie, erg. E. Maluche";104509;;;;;;;;;;;;;;;;;;;;;Simbabwe [...];;['Bulawayo', 'Umtali'];3539557;22.1775;-79.22056
Anesaki (Masahar);Anesaki (Masahar);1901;Datum erste Erwähnung: 1901, Erwerbungsvorgang;;Veräußerer;Person;;;Nachweis aus dem Inventar I, DS bearb. B. Gliesmann;397052;;;;;;;;;;;;;;;;;;;;;;;;3539557;22.1775;-79.22056
Angert, Franz;Franz Angert;1926;Datum erste Erwähnung: 1926, Erwerbungsvorgang;Aufenthaltsort: Sankt Gallen ;Veräußerer;Person;;;Nachweis aus dem Inventar V, DS DS bearb. B. Gliesmann;144;;;;;;;;;;;;;;;;;;;;;;;Sankt Gallen;3539557;22.1775;-79.22056
Ankermann, Bernhard;Bernhard Ankermann;"1896 - 1911; 14.02.1859 - 26.10.1943; 1911 - 1915 [...]";"Beschäftigungszeit: 1896 - 1911, wiss. Hilfsarbeiter, Mitarbeiter Luschans, in der Afrikanisch-Ozeanischen Abteilung des Museums für Völkerkunde Berlin; Lebensdaten: 14.02.1859 - 26.10.1943; Beschäftigungszeit: 1911 - 1915, Sammlungsdirektor der Afrikanisch-Ozeanischen Abteilung des Museums für Völkerkunde Berlin [...]";"Geburtsort: Tapiau (Ostpreußen); Sterbeort: Berlin; Aufenthaltsort: Kamerun [...]";Sammler, Afrika-Forschungsreisender, Assistent, später Kustos am MV, fotografische Aufnahmen;Person;Kurzbiographie: Ankermann wurde 1896 ohne abgeschlossene Universitätsausbildung Assistent in der Afrikaabteilung des Museums für Völkerkunde in Berlin. 1901 promovierte er mit einer Arbeit über „Die afrikanischen Musikinstrumente“. Von Oktober 1907 bis Mai 1909 unternahm er im Auftrag dieses Museums eine Forschungsreise in das Kameruner Grasland, wo er auch Musikaufnahmen für das Berliner Phonogramm-Archiv machte. Zusammen mit Jonathan Striebel bei einer Lela Zeremonie 1908*¹. Nach seiner Rückkehr erhielt er am Berliner Museum für Völkerkunde eine Kustodenstelle, 1916/1917*² wurde er zum Direktor der Afrikaabteilung ernannt. Er verfaßte zahlreiche völkerkundliche Publikationen zu Afrika sowie theoretische Abhandlungen, insbesondere zur Kulturkreislehre.;http://d-nb.info/gnd/117661813;"Nachweis aus dem Inventar III/III Kopie, DS erg. E.Maluche 
DS bearb. B. Gliesmann

Schachtzabel, Alfred 1938: ""Prof. Dr. Bernhard Ankermann zum 80. Geburtstage"", Sonderbeilage Baessler-Archiv Bd. XXI: o.S.- 

Hirschberg, Walter 1939: Festschrift zum 80. Geburtstag ""Das Werk Bernhard Ankermanns"", Zeitschrift für Ethnologie Bd. 70: 129-143. (mit Porträtaufnahme) (Bibl. unter Z 38)

verwendet in: Die Wachswalzenzylinder des BPA, S. Ziegler, SMB/Ethnolog. Museum 2006, S. 329 [1 Abb.]

*¹ Richard Fardon: Lela in Bali- History Through Ceremony in Cameroon, Berghahn Books (2006). S. 27

*² Kurt Krieger in Baessler Archiv Bd. XXI (1973), S. 110: erhielt 1916 den Titel Direktor und übernahm die selbst. Verwaltung der afrik. Sammlungen. 1916 ist also das Geburtsjahr einer eigenständigen Afrika-Abteilung.

Artikel:
http://de.wikipedia.org/wiki/Bernhard_Ankermann, Zugriff 04.12.2012";99624;;;;;;Berlin;;;;;;Tapiau (Ostpreußen);;;;;;;;;;;Kamerun [...];3539557;22.1775;-79.22056
Anrep-Elmpt, Reinhold;Reinhold Anrep-Elmpt;"† 26.10.1888; 1834 - 1888";"Todesdatum: † 26.10.1888, Aktenvorgang bezgl. Nachlass; Lebensdaten: 1834 - 1888";"Bezug: Kaiserreich, Russland; Sterbeort: Main-Long-gylt (Siam, Shan-Staaten); Wohnort: Rheinregion [...]";Forschungsreisender;Person;"Kurzbiographie: Russischer Forschungsreisender. Durchreiste ab 1870 alle Koninente. 
1888 Elmpt´sche Ethnologische Expedition in das Hochland von Annam.";;"Nachweis aus dem Vorgang E 1026/1888 (I B 18 Asien) (Todesanzeige, siehe Sterbeort und Todesdatum), DS bearb. B. Gliesmann

Hinweis unter
http://www.weltbild.de/3/16351513-1/buch/die-sandwich-inseln.html#produktbeschreibung, Zugriff 26.3.2012, BG
Inhaltsangabe zum Werk. Lebensdaten, Stichpunkte zur Biografie";318633;;;;;;Main-Long-gylt (Siam, Shan-Staaten);;;;;;;;;;Rheinregion [...];;;Kaiserreich, Russland;;;;;3539557;22.1775;-79.22056
Anschütz;Anschütz;1904;Datum erste Erwähnung: 1904, Erwerbungsvorgang;;Geheimrat;Person;;;Nachweis aus dem Inventar I, DS bearb. B. Gliesmann;310592;;;;;;;;;;;;;;;;;;;;;;;;3539557;22.1775;-79.22056
Ansorge, Hermann;Hermann Ansorge;"*1817; 1857";"Geburtsdatum: *1817; Datum erste Erwähnung: 1857, Erwerbungsvorgang, Korrespondenz";"Wohnort: Berlin; Aufenthaltsort: Bengalen; Sammelgebiet: Bengalen";Theologe, Pfarrer, Missionar in Bengalen;Person;Kurzbiographie: Bezeichnet sich in der Korrespondenz als Missions-Prediger und Englit[.] bischöflichen Misionar.;http://d-nb.info/gnd/117764183;"Nachweis aus dem Vorgang I B Asien, E 156/1857 (Einsicht), 
GND (Kalliope): Geburtsdatum, ergänz. Tätigkeiten/Funktion
DS bearb. B. Gliesmann";320080;;;;;;;Bengalen;;;;;;;;;Berlin;;;;;;;Bengalen;1275004;22.56263;88.36304
Ansorge, William John;William John Ansorge;"1909; 1850 - 31.10.1913";"Datum erste Erwähnung: 1909, Erwerbungsvorgang; Lebensdaten: 1850 - 31.10.1913";"Geburtsort: Bangladesch (Bengalen); Sterbeort: Angola; Wohnort: London [...]";Sammler, Zoologe;Person;"Kurzbiographie: Born 1850 in Bangladesh. died in Angola 31.10.1913. Professor of the Royal College of Mauritius until 1886. He was appointed District Medical Officer in Uganda 1892 where he amassed a large collection of birds and other animals. In 1890 he crossed the African Continent from East to West and later became District Medical Officer in Nigeria where he participated in the Aro Expedition. He spent his retirement travelling and collecting in Africa.
His Collection of Angolan Birds from 1905 and 1908 - 1909 as well as his Collection of Portugese Guinea Birds from 1909 were given to the BM(NH). He discovered many new species and sub species which bear his name. Obituary can be found in 1915 edition of Ibis, Journal of the British Ornithologists Union. 

Laut einem Brief an Luschan, sammelte Ansorge Beninobjekte in den Dörfern um die Stadt Benin. Eine Anzahl dieser Objekte, versteigerte in November 1909 in London bei dem Auktionshaus J.C. Stevens.";http://d-nb.info/gnd/102071608;"Nachweis aus dem Inventar III, DS bearb. B. Gliesmann

W.J. Ansorge, Under the African sun; a description of native races in Uganda, sporting adventures and other experiences (New York, Longmans, Green, 1899) (bearb. Dr. J. Fine)

EM-Archiv, E 2556/1909 (bearb J. Fine)

Quelle der Kurzbiographie, Lebensdaten, und Addressen: http://www.nhm.ac.uk/research-curation/library/archives/catalogue/dserve.exe?dsqServer=placid&dsqIni=Dserve.ini&dsqApp=Archive&dsqDb=Persons&dsqSearch=Code==%27PX780%27&dsqCmd=Show.tcl (aufgerufen 17.12.2015) (bearb. J. Fine)

GND-Nachweis über Katalog der Deutschen Nationalbibliothek (DNB), Datensatz ohne weitere Angaben oder Lit. Verweise";2596;;;;;;Angola;;;;;;Bangladesch (Bengalen);;;;London [...];;;;;;;;3539557;22.1775;-79.22056
Antelmann, Bruno;Bruno Antelmann;"1894; 1903";"Datum erste Erwähnung: 1894, Erwerbungsvorgang; Datum letzte Erwähnung: 1903, Erwerbungsvorgang";Tätigkeitsort: Berlin;Veräußerer, Kolonialwarenhändler [Dt. Kolonialhaus, Berlin];Person;"Kurzbiographie: Besitzer des Deutschen Kolonialhauses, Lützowstraße 89-90 in Berlin. Deutsche Kolonialausstellungen simulieren afrikanisches Alltagsleben. Bruno Antelmann war Geschäftsmann, der sich auf den Import von „Kolonialwaren“ spezialisiert hatte. Seine Firma, das Deutsche Kolonialhaus an der , vertrieb sämtliche Artikel der Kolonialwarenbranche vom „Usambarakaffee“ über „Herero-Schmuck“ bis hin zu „Hausgötzen aus Togo“. Bruno Antelmann nahm mit einer ""Negerhütte"" an der Gewerbeausstellung in Treptow 1896 teil. Es gab bei ihm Kamerunkakao, Usambarakaffee und Neu-Guineazigarren zu verkosten. Nach Ablauf der Ausstellung bot er sogar einigen Eingeborenen einen Ausbildungsplatz in seinem ""Deutschen Kolonialhaus"" in Berlin-Mitte an, einem Kolonialwarenladen mit angeschlossenem Kaffeehaus. Dank der schwarzen Angestellten konnte es fortan auch mit dem gebotenen exotischen Flair aufwarten.[2]
Das kinderlose Ehepaar Antelmann nahm Kwassi Bruce und noch noch einige andere junge Afrikaner in Pflege, auch sie „Söhne angesehener eingeborener Familien, die zumeist durch die Herren Gouverneure der einzelnen Schutzgebiete an den Chef des Deutschen Kolonialhauses , Herrn Bruno Antelmann, zur Erziehung und beruflichen Ausbildung empfohlen wurden.“ [1]";;"[1 ] Zit. nach: Joachim Zeller: „Das Deutsche Kolonialhaus in der Lützowstraße“. In: Ulrich van der Heyden / Joachim Zeller (Hg.): Kolonialmetropole Berlin. Eine Spurensuche. Berlin 2002. S. 89. -- veröffentl. unter http://www.dhm.de/ausstellungen/namibia/stadtspaziergang/reichskolonialamt.htm

[2] zur Kol.auss. Treptow: http://www.planet-wissen.de/politik_geschichte/preussen/deutsche_kolonien/portraet_1896.jsp, Zugriff 23.11.2010



Briefkopf Kolonialhaus unter E 204/1901

DS bearb. B. Gliesmann";2597;;;;;;;;;;;;;;;;;Berlin;;;;;;;3539557;22.1775;-79.22056
Anthor, Gustav;Gustav Anthor;1926;Datum erste Erwähnung: 1926, Erwerbungsvorgang;"Aufenthaltsort: Berlin; Aufenthaltsort: Bezirk, Steglitz";Veräußerer;Person;;;Nachweis aus dem Inventar I A, DS bearbeitet von B. Weiss, DS bearb. B. Gliesmann;404208;;;;;;;;;;;;;;;;;;;;;;;['Berlin', 'Bezirk, Steglitz'];3539557;22.1775;-79.22056
Anthropologische Gesellschaft Antwerpen;Anthropologische Gesellschaft Antwerpen;1888;Datum erste Erwähnung: 1888, Vorgang;Sitz: Antwerpen (Belgien);;Körperschaft;;;Nachweis aus dem Vorgang E 610/1888 (IB 7 Afrika), DS bearb. B. Gliesmann;110288;;Antwerpen (Belgien);;;;;;;;;;;;;;;;;;;;;;3539557;22.1775;-79.22056
Anthropologische Sammlung Berlin;Anthropologische Sammlung Berlin;"1917; 1924";"Datum erste Erwähnung: 1917, Erwerbungsvorgang; Datum letzte Erwähnung: 1924, Erwerbungsvorgang";Standort: Berlin;;Körperschaft;;;"Nachweis aus dem Inventar V, DS bearb. B. Gliesmann
Nachweis  aus dem Inventaren IV, III / III Kopie, DS erg. E. Maluche";145;;;;;;;;;;;;;;;;;;;;Berlin;;;;3539557;22.1775;-79.22056
Antiquarische Gesellschaft, Zürich;Antiquarische Gesellschaft, Zürich;"1887; 1951";"Datum erste Erwähnung: 1887, Korrespondenz (Aktenvorgang); Datum letzte Erwähnung: 1951, Vorgang";"Schweiz; Sitz: Zürich";;Körperschaft;;https://reconcile.gnd.network/gnd/1003869-3;Nachweis aus dem Vorgang V, E 779/1887, DS bearb. B. Gliesmann;377469;;Zürich;;;Schweiz;;;;;;;;;;;;;;;;;;;3539557;22.1775;-79.22056
Antiquarisches Buchkabinet;Antiquarisches Buchkabinet;1922;Datum erste Erwähnung: 1922, Erwerbungsvorgang;;Veräußerer;Körperschaft;;;Nachweis aus dem Inventar I A, DS bearbeitet von B. Weiss;405295;;;;;;;;;;;;;;;;;;;;;;;;3539557;22.1775;-79.22056
Antiquarium, Königliche Museen zu Berlin;Antiquarium, Königliche Museen zu Berlin;"1830 - 1918; 1857";"Existenzdaten: 1830 - 1918; Datum erste Erwähnung: 1857, Erwerbungsvorgang (EM)";Standort: Berlin;;Körperschaft;Kurzbiographie: Sammlung sämtlicher Münzen, Medaillen, geschnittener Steine, antike Vasen und Majoliken - Direktor Prof. Levezow;http://d-nb.info/gnd/1701241-7https://reconcile.gnd.network/gnd/10001498-7;"Nachweis aus dem Vorgang IB Asien, E 148/1857, DS bearb. B. Gliesmann
= Existenzdaten, GND übernommen von ANT";342572;;;;;;;;;;;;;;;;;;;;Berlin;;;;3539557;22.1775;-79.22056
Anton Schroll & Co. GmbH;Anton Schroll & Co. GmbH;1928;Datum erste Erwähnung: 1928, Erwerbungsvorgang;Sitz: Wien (Österreich);Veräußerer;Körperschaft;;;Nachweis aus dem Inventar V, DS bearb. B. Gliesmann;562;;Wien (Österreich);;;;;;;;;;;;;;;;;;;;;;3539557;22.1775;-79.22056
Antonia Lyceum;Antonia Lyceum;1887;Datum erste Erwähnung: 1887, Erwähnung im Vorgang;;;Körperschaft;;;Nachweis aus dem Bürojournal zum Vorgang E 755/1887 (IX), DS bearb. B. Gliesmann;409982;;;;;;;;;;;;;;;;;;;;;;;;3539557;22.1775;-79.22056
Antunez, Santiago;Santiago Antunez;1911;Datum erste Erwähnung: 1911, Erwerbungsvorgang;;Veräußerer;Person;;;Nachweis aus dem Inventar V, DS bearb. B. Gliesmann;147;;;;;;;;;;;;;;;;;;;;;;;;3539557;22.1775;-79.22056
Anz;Anz;1906;Datum erste Erwähnung: 1906, Aktenvorgang;"Bezug: Windhoek (Deutsch-Südwestafrika); heutige Zuordnung: Land, Namibia";;Person;;;Nachweis aus dem Vorgang E 261/1906 (I B 36 Afrika), DS bearb. B. Gliesmann;109735;;;;;;;;;;;;;;;;;;;Windhoek (Deutsch-Südwestafrika);;Land, Namibia;;;3539557;22.1775;-79.22056
Aoki Shuzô (青木周蔵);Aoki Shuzô (青木周蔵);"1844 - 1914; 1874 - 1885; 1892 - 1897 [...]";"Lebensdaten: 1844 - 1914; Tätigkeitszeit: 1874 - 1885, als Diplomat in Berlin; Tätigkeitszeit: 1892 - 1897, nochmals als Gesandter in Berlin [...]";"Japan; Tätigkeitsort: Berlin";Veräußerer, Diplomat;Person;;;"DS angel. Dr. Nahser, bearb. B. Gliesmann

Tokyo-Berlin im 19. u. 20. Jh., Berlin (Japan.-Dtsch. Zentrum), 1997, S. 38 sowie Anm. 28.

Ferner:
Biografische Notizen auch in:
Becker, Bert (Hg.), Georg Michaelis-Ein preußischer Jurist im Japan der Meiji-Zeit. , München 2001.
S. 70.

Brückenbauer. Pioniere des japanisch-deutschen Kulturaustausches (Hg. JDZB), Berlin , 2005, S. 32 f.

Foto in; 150 Jahre deutsch-japan. Beziehungen, Tokyo 2013.

Hinweis auf http://de.wikipedia.org/wiki/Aoki_Sh%C5%ABz%C5%8D";1101;;;;;Japan;;;;;;;;;;;;Berlin;;;;;;;3539557;22.1775;-79.22056
Apitz, Wilhelm;Wilhelm Apitz;1897;Datum erste Erwähnung: 1897, Erwerbungsvorgang;Aufenthaltsort: Rixdorf;;Person;;;Nachweis aus dem Inventar I, DS bearb. B. Gliesmann;1764;;;;;;;;;;;;;;;;;;;;;;;Rixdorf;3539557;22.1775;-79.22056
Appelhaus <Frau>;Frau Appelhaus;1911;Datum erste Erwähnung: 1911, Erwerbungsvorgang;Aufenthaltsort: Charlottenburg;Veräußererin;Person;;;Nachweis aus dem Inventar V, DS  bearb. B. Gliesmann;148;;;;;;;;;;;;;;;;;;;;;;;Charlottenburg;3539557;22.1775;-79.22056
Appold;Appold;1931;Datum erste Erwähnung: 1931, Erwerbungsvorgang;"Wohnort: Berlin; Wohnort: Bezirk, Steglitz; Sammelgebiet: Westafrika";Sammler, Major a.D.;Person;;;Nachweis aus dem Inventar III/III Kopie, DS bearb. E. Maluche, DS bearb. B. Gliesmann;381503;;;;;;;Westafrika;;;;;;;;;['Berlin', 'Bezirk, Steglitz'];;;;;;;;7729885;18.31281;-4.83398
Araoz, Manuel;Manuel Araoz;1893;Datum erste Erwähnung: 1893, Erwerbungsvorgang;;Veräußerer;Person;;;aus dem Hauptkatalog V C, bearb. B. Gliesmann;90734;;;;;;;;;;;;;;;;;;;;;;;;3539557;22.1775;-79.22056
Archaeological Survey of India. Northern Circle;Archaeological Survey, Northern Circle India;1909;Datum erste Erwähnung: 1909, Erwähnung im Erwerbungsvorgang;Sitz: Lahore (Indien);Veräußerer Inst.;Sozietät;"Kurzbiographie: Seite der Mitte des 19Jh. arbeitete die Archaeological Survey of India an der Erforschung, Ausgrabung
Konservierung und Sicherung von Monumenten und Stätten in Indien.
Circle reports 1881-1921.";;"Nachweis aus dem Inventar I A, DS bearbeitet von B.Weiss, DS bearb. B. Gliesmann

http://www.crl.edu/sites/default/files/d6/attachments/pages/Arch%20Survey%20of%20India%20Circle%20Reports.pdf, Zugriff 17.7.2017";405102;;Lahore (Indien);;;;;;;;;;;;;;;;;;;;;;3539557;22.1775;-79.22056
Arechavaleta, José;José Arechavaleta;"1900; 27.9.1838 - 16.6.1912; 1888";"Datum letzte Erwähnung: 1900, Erwerbungsvorgang; Lebensdaten: 27.9.1838 - 16.6.1912; Datum erste Erwähnung: 1888, Erwerbungsvorgang";"Geburtsort: Urioste (Spanien); Sterbeort: Montevideo (Uruguay); Tätigkeitsort: Montevideo (Uruguay) [...]";Veräußerer, Direktor des Museo Nacional de Mondevideo;Person;Kurzbiographie: Studiert Medizin bis zum Abschluss 1868. 1868 Comisión Asesora del Museo, Dozentenstelle an der Universität. 1890 Direktor des Museo Nacional Monteviedo.;;"Nachweis aus dem Inventar I und Vorgang I B Amerika

zu biograf. Angaben: http://www.mec.gub.uy/munhina/biograf2.htm (span., mit Portrait)

DS bearb. B. Gliesmann, A.Beyer

Ergänzung aus Günther Hartmann in: ZfE, Bd. 100, Verl. Albert Limbach Braunschweig 1975, S. 312, 316/321
DS bearb. A. Beyer";1765;;;;;;Montevideo (Uruguay);;;;;;Urioste (Spanien);;;;;Montevideo (Uruguay) [...];;;;;;;3539557;22.1775;-79.22056
Arendt <Dr.>;Dr. Arendt;1903;Datum erste Erwähnung: 1903, Erwerbungsvorgang;Sammelgebiet: Peking (China);Veräußerer, Oberstabsarzt;Person;;;Nachweis aus dem Inventar I, DS bearb. B. Gliesmann;409229;;;;;;;Peking (China);;;;;;;;;;;;;;;;;1816670;39.9075;116.39723
Arenhohl;Arenhohl;1895;Datum erste Erwähnung: 1895, Erwerbungsvorgang;;Veräußerer, Kapitänleutnant;Person;;;Nachweis aus dem Inventar I, DS bearb. B. Gliesmann;408668;;;;;;;;;;;;;;;;;;;;;;;;3539557;22.1775;-79.22056
Argentinische Ausstellung in Bremen;Argentinische Ausstellung in Bremen;"5.1884 - 6.1884; 1884; 1886";"Existenzdaten: 5.1884 - 6.1884; Erste Erwähnung: 1884, Erwerbungsvorgang; Letzte Erwähnung: 1886, Erwerbsvorgang";"Standort: Bremen; Sammelgebiet: Argentinien";;Körperschaft;Kurzbiographie: Veranstaltet von der Geografischen Gesellschaft Bremen;;"Katalogeinband unter: http://www.bbk.ac.uk/ibamuseum/facsimils/Katalog0101.html

bearb. B. Gliesmann

Ergänzung aus Günther Hartmann in: ZfE, Bd. 100, Verl. Albert Limbach Braunschweig 1975, S. 316/321

DS bearb. A. Beyer";1813;;;;;;;Argentinien;;;;;;;;;;;;;Bremen;;;;3865483;-34;-64
Armitage;Armitage;1905;Datum erste Erwähnung: 1905, Erwähnung in der Korrespondenz;;;Person;;;Nachweis aus dem Vorgang E 1473/1905 (IB 33 Afrika), DS bearb. B. Gliesmann;403369;;;;;;;;;;;;;;;;;;;;;;;;3539557;22.1775;-79.22056
Arnim, von;von Armin;1907;Datum erste Erwähnung: 1907, Erwerbungsvorgang;Sammelgebiet: Nordwest-Kamerun;Veräußerer, General-Major;Person;;;Nachweis aus dem Inventar III / III Kopie, DS bearb. B. Gliesmann;375769;;;;;;;Nordwest-Kamerun;;;;;;;;;;;;;;;;;;;
Arning <Dr.>, Wilhelm;Dr. Wilhelm Arning;1896;Datum erste Erwähnung: 1896, Erwerbungsvorgang;;Sammler, Schutztruppenarzt;Person;;;Nachweis aus dem Vorgang I B 16 Afrika, E 858/1896, DS bearb. B. Gliesmann;112682;;;;;;;;;;;;;;;;;;;;;;;;3539557;22.1775;-79.22056
Arning, Eduard von;Eduard von Arning;"9.6.1855 - 1936; 1883 - 1886; 8.12.1926 [...]";"Lebensdaten: 9.6.1855 - 1936; Tätigkeitszeit: 1883 - 1886, Die Lepraforschung auf Hawaii; Datum letzte Erwähnung: 8.12.1926, Korrespondenz [...]";"Geburtsort: Manchester; Sterbeort: Hamburg; Tätigkeitsort: Breslau [...]";Sammler, Fotograf, Arzt (Dermatologe, Lepra-Forscher), Geheimrat;Person;"Kurzbiographie: Eduard Christian Arning medizinhistorische Bedeutung: Verdienste um die Erforschung der Lepra sowie als langjähriger Oberarzt und später Universitätsprofessor für Dermatologie am Hamburger Krankenhaus St. Georg. Dort wirkte er von 1906 bis 1924. Von 1883 bis 1886 hatte er als Assistent an der Breslauer Universitätsklinik unter Albert Neisser (1855 bis 1916), dem Entdecker des Syphilis-Erregers, eine Reise nach Hawaii unternommen, um die auf den Inseln endemische Lepra zu erforschen. Dort gelang ihm der Nachweis von Leprabakterien in Nervensträngen; der Theorie, Lepra sei ein Spätstadium der Syphilis, trat er vehement entgegen. Zusätzlich legte er eine bedeutende völkerkundliche Sammlung über die Hawaii-Inseln und ihre Bewohner an, die nach seiner Rückkehr in die Bestände des Berliner Völkerkundemuseums überging. Ein wichtiger Korrespondenzpartner Arnings während der Zeit in Hawaii war Rudolf Virchow (1821 bis 1902).

Neben seinen Leistungen als Mediziner erlangte Arning einen gewissen Ruhm als Fotograf. Vertreter der Hamburger Schule der Kunstfotografie um die Brüder Theodor (1868 bis 1943) und Oscar Hofmeister (1971 bis 1937).";;"DS bearb. B. Gliesmann

zur Biografie: von Axel Helmstädter, Dreieich, veröffentlicht unter http://www.pharmazeutische-zeitung.de/pza/2001-26/magazin.htm

http://kalliope.staatsbibliothek-berlin.de/index_800.html: Geburtsdatum, Geburts- und Sterbeort

siehe auch Verweise:

http://www.uke.uni-hamburg.de/
kliniken/hautklinik/geschichte.de.html

http://www.aerztekammer-hamburg.de/
funktionen/aebonline/pdfs/1035279258.pdf

http://www.whonamedit.com/doctor.cfm/282.html
->Hawaiian Historical Society Library";113478;;;;;;Hamburg;;;;;;Manchester;;;;;Breslau [...];;;;;;;3539557;22.1775;-79.22056
Arnold & Borchardt;Arnold & Borchardt;1851;Datum erste Erwähnung: 1851, Erwerbungsvorgang, Korrespondenz;Standort: Berlin;;Körperschaft;;;Nachweis aus dem Vorgang I B Amerika, E 2749/1851 (Einsicht), DS bearb. B. Gliesmann;320613;;;;;;;;;;;;;;;;;;;;Berlin;;;;3539557;22.1775;-79.22056
Arthur Collignon Verlag;Arthur Collignon Verlag;"1949; 1917";"Datum letzte Erwähnung: 1949, Vorgang; Datum erste Erwähnung: 1917, Vorgang";Standort: Berlin;;Körperschaft;;https://reconcile.gnd.network/gnd/10071816-4;"Für die erste Erfassung der Körperschaft
Nachweis über Kartei für 01.01.1949 bis 31.12.1959, DS angel. R. Lau";394167;;;;;;;;;;;;;;;;;;;;Berlin;;;;3539557;22.1775;-79.22056
Arthur Posnansky;Arthur Posnansky;"13.4.1873 - 1946; 1898";"Lebensdaten: 13.4.1873 - 1946; Datum erste Erwähnung: 1898, Erwerbsvorgang";"Geburtsort: Wien (Österreich); Sterbeort: La Paz (Bolivien); Aufenthaltsort: Para [...]";Sammler, Ingenieur, Archäologe;Person;Kurzbiographie: Mitglied und später Präsident der Sociedad Geografica de Bolivia in La Paz. Er brachte das erste Auto nach Bolivien.;;"Nachweis aus dem Inventar I, DS bearb. B. Gliesmann

Ergänzung aus Günther Hartmann in: ZfE, Bd. 100, Verl. Albert Limbach Braunschweig 1975, S. 312, 316/321

http://en.wikipedia.org/wiki/Arthur_Posnansky
26.9.2008
DS bearb. A. Beyer";2029;;;;;;La Paz (Bolivien);;;;;;Wien (Österreich);;;;;;;;;;;Para [...];3539557;22.1775;-79.22056
Artistische Kommission der Königlichen Museen;Artistische Kommission der Königlichen Museen;1834;Datum erste Erwähnung: 1834, Erwähnung im Anschreiben;Sitz: Berlin;;Körperschaft;"Kurzbiographie: Altenstein, Berlin, 25.11.1831, Abschrift: Betrifft Einsetzung einer »künstlerischen Commission, welche unter dem Vorsitze des Herrn General-Intendanten der königlichen Museen alle, auf den artistischen Theil des königl. Museums sich beziehenden Gegenstände gemeinschaftlich berathen und darüber selbstständig beschließen soll.« Bei Abwesenheit Brühls soll Schinkel den Vorsitz führen. Mitglieder der Kommission waren Schinkel, Levezow, Tieck, Gustav Friedrich Waagen, Rauch, Wach, Schlesinger. * -- Aloys Hirt
Artistischen Commission bereitet die Eröffnung des Alten Museums in Berlin vor. Gegen Hirts Plan, ein ,lückenloses‘ Museum einzurichten, erreichte Waagen, dass ausschließlich Originale in die Ausstellung einbezogen wurden. Die grundsätzliche Systematik einer Aufstellung nach Schulen bzw. nach einer historischen Entwicklungsfolge wurde beibehalten, aber es wurde versucht, auch die kunstgeschichtliche Entwicklung eines einzelnen Oeuvres aufzuzeigen.";;"Nachweis aus den Vorgängen 1834, IB 1 Asien und Amerika, DS bearb. B. Gliesmann

*VII.3.b.: Akten betreffend Kunstverwaltung des Museums 1829-1839., Bl. 9:

http://www.museumsbund.at/nm_2004_01_01.html";109463;;Berlin;;;;;;;;;;;;;;;;;;;;;;3539557;22.1775;-79.22056
Asch-Corlach, Hanna;Hanna Asch-Corlach;1928;Datum erste Erwähnung: 1928;;;Person;;;barb. B. Gliesmann;2604;;;;;;;;;;;;;;;;;;;;;;;;3539557;22.1775;-79.22056
Asch, Hannah;Hannah Asch;1928;Datum erste Erwähnung: 1928, Erwerbungsvorgang;"Wohnort: Berlin; Sammelgebiet: Birma";Veräußererin;Person;;;Nachweis aus dem Inventar I A, DS bearb. B. Gliesmann                                              Nachweis aus dem Inventar III / III Kopie, DS bearb. E. Maluche;303555;;;;;;;Birma;;;;;;;;;Berlin;;;;;;;;1327865;21;96
Zurstraßen, J.;J. Zurstraßen;9.1853;Datum erste Erwähnung: 9.1853, Erwähnung im Zeitungsartikel und Notiz des Namens beim Inv. Verz.;Tätigkeitsort: Köln;Kunsthändler;Person;;;Nachweis aus dem Vorgang I B Asien, E 1700/1853, DS bearb. B. Gliesmann;354660;;;;;;;;;;;;;;;;;Köln;;;;;;;3539557;22.1775;-79.22056
Zymalkowski <Dr.>;Dr. Zymalkowski;1912;Datum erste Erwähnung: 1912, Erwerbungsvorgang;;;Person;;;Nachweis aus dem Inventar I A, DS bearb. B. Gliesmann;2565;;;;;;;;;;;;;;;;;;;;;;;;3539557;22.1775;-79.22056
Zymalkowski, M. <Frau>;Frau M. Zymalkowski;1916;Datum erste Erwähnung: 1916, Erwerbungsvorgang;;;Person;;;Nachweis aus dem Inventar I A, DS bearb. B. Gliesmann;357584;;;;;;;;;;;;;;;;;;;;;;;;3539557;22.1775;-79.22056
Zypen, Julius van der;Julius van der Zypen;1906/1907;Datum erste Erwähnung: 1906/1907, Erwerbungsvorgänge;Tätigkeitsort: Köln;Mäzen, Commerzienrath;Person;;;Nachweis aus dem Inventar V, DS bearb. B. Gliesmann (s. Bem.);710;;;;;;;;;;;;;;;;;Köln;;;;;;;3539557;22.1775;-79.22056
