geoname	geoname1	Unnamed: 1	Unnamed: 2	Unnamed: 3	Unnamed: 4	Unnamed: 5	Unnamed: 6	Unnamed: 7	Unnamed: 8	geonameId	latitude	longitude
Aachen	Aachen									3247449	50.77664	6.08342
Aberdeen (Schottland)	Aberdeen (Schottland)									2657832	57.14369	-2.09814
Abessinien (Äthiopien)	Abessinien (Äthiopien)	Abessinien								337996	9	39.5
Abomey	Abomey									2395914	6.44852	2.35566
Acapulco (Mexiko)	Acapulco (Mexiko)									3533462	16.84942	-99.90891
Adamaua (Kamerun)	Adamaua (Kamerun)	Adamawa								2224827	7.32765	13.58472
	Adi Laie (Eritrea)											
Admiralitäts-Inseln	Admiralitäts-Inseln									2101359	-2.24338	147.40859
Afghanistan	Afghanistan									1149361	33	66
Afrika	Afrika									6255146	7.1881	21.09375
	Afrika (Oberer Nil, Tripolis)											
	Afrika, Bornu											
	Afrika, Kabylen											
	Afrika, Table Bay											
	Afrika-Westküste											
	Ailinglap (Marshall-Inseln)											
	Ainu (Yezo)											
Alaska	Alaska									5879092	64.00028	-150.00028
Albuquerque	Albuquerque									5454711	35.08449	-106.65114
	Alegria Enfield											
Aleppo (Syrien)	Aleppo (Syrien)									170063	36.20124	37.16117
Alexishafen	Alexishafen									2101036	-5.09074	145.80288
Alfeld (Leine)	Alfeld (Leine)									2958533	51.98382	9.81989
Algier	Algier									2507480	36.73225	3.08746
Alkersleben	Alkersleben									2958480	50.85	11.03333
Allahabad (Indien)	Allahabad (Indien)									1278994	25.44478	81.84322
	Alt-Wallmoden (bei Hildesheim)											
Altona	Altona									2911296	53.55	9.93333
Amam	Amam									8521444	30.43698	49.10288
Amazonas (Brasilien)	Amazonas (Brasilien)	Amazonien								3663517	-3.10194	-60025
	Ambas Bay, Victoria											
Amoy (Xiamen)	Amoy (China, heutiges Xiamen)	Amoy (Xiamen)								1790645	24.47979	118.08187
Amsterdam (Niederlande)	Amsterdam (Niederlande)	Amsterdam								2759794	52.37403	4.88969
Ancon	Ancon									3714734	8.96015	-79.5514
Andalgalá (Argentinien)	Andalgalá (Argentinien)									3865801	-27.58333	-66.46667
Andamanen	Andamanen									1259385	11.66613	92.74635
	Andolsheim (Oberelsass)											
	Andrew, Alberta (Canada/Kanda)											
Angola	Angola									3351879	-12.5	18.5
Annam	Annam									1594320	15	108
	Annapolis (Vereinigte Staaten (USA)											
Ansbach	Ansbach									2955936	49.30481	10.5931
Antananarivo [Tananarive] (Madagaskar)	Antananarivo [Tananarive] (Madagaskar)									1070940	-18.91368	47.53613
Antillen	Antillen									3574469	19	-72
Antofagasta	Antofagasta									3899539	-23.65094	-70.39752
Antwerpen (Belgien)	Antwerpen (Königreich Belgien)	Antwerpen (Belgien)								2803138	51.22047	4.40026
	Anuradhapura (Ceylon)											
	Anyang (Ajang)-Land (Kamerun)											
Apia (Samoa)	Apia (Samoa)	Apia								4035413	-13.83333	-171.76666
Arabien	Arabien									102358	25	45
	Araukaner (Chile)											
Archipel, Molukken	Archipel, Molukken									1636629	-1.57634	127.71744
Arequipa (Peru)	Arequipa (Peru)									3947322	-16.39899	-71.53747
Argentinien	Argentinien									3865483	-34	-64
Argus, ?	Argus, ?									6639262	-80.36666	77.35416
Arica (Chile)	Arica (Chile)									3899361	-18.47552	-70.30058
Arizona	Arizona (Vereinigte Staaten USA)	Arizona								5551752	34.5003	-111.50098
Arnheim	Arnheim									2759661	51.98	5.91111
	Asahan (Ost-Sumatra)											
Aschaffenburg	Aschaffenburg									2955272	49.97704	9.15214
Ascona (Tessin/Schweiz)	Ascona (Tessin/Schweiz)									2661698	46.15451	8.77327
Asham	Asham									383210	28.48405	41.23067
Askabad (Aşgabat)	Askabad (Aşgabat)									162183	37.95	58.38333
Assam (Indien)	Assam (Indien)									1278253	26	93
	Asunion (Paraguay)											
Atacama (Chile)	Atacama (Chile)									3899191	-27.5	-70
Atakpame	Atakpame									2367886	7.53333	1.13333
Athen (Griechenland)	Athen (Griechenland)									264371	37.98376	23.72784
Atiu (Cookinseln)	Atiu (Cookinseln)									11695126	-19.99569	-158.10948
	Atotonilco el Grande in Hidalgo											
	Atscho, Muncigebiet (Kamerun)											
Auckland, Neuseeland	Auckland, Neuseeland									2187404	-36.99282	174.87986
Augsburg (Bayern)	Augsburg (Bayern)	Augsburg								2954172	48.37154	10.89851
	Augusta-Fl., Adm.I., Salomo-I., Heath-I.											
	Augusta-Fluß, Admiralitäts-Inseln											
Aurich	Aurich									2954006	53.46919	7.48232
Australien	Australien									2077456	-25	135
	Autenrieth											
	Avalon (Santa Catalina Island, Kalifornien)											
Babelsberg	Babelsberg									2953775	52.39322	13.0955
	Bad Coserow											
Bad Eilsen	Bad Eilsen									2953516	52.24215	9.09822
Bad Elmen	Bad Elmen									8643119	51.99908	11.72001
Bad Harzburg	Bad Harzburg (Provinz Hannover)	Bad Harzburg								2953449	51.88268	10.56157
Bad Hersfeld	Bad Hersfeld									2953439	50.87197	9.70891
Bad Homburg	Bad Homburg									2953436	50.22683	8.61816
Bad Kreuznach	Bad Kreuznach									2953416	49.8414	7.86713
Bad Nauheim	Bad Nauheim									2953395	50.36463	8.73859
Bad Oeynhausen	Bad Oeynhausen									2953386	52.20699	8.80365
Bad Soden (Taunus)	Bad Soden (Taunus)									2953339	50.1408	8.50449
Bad Sulza (Thüringen)	Bad Sulza (Thüringen)									2953330	51.08929	11.62474
	Baden (bei Wien/Österreich)											
Baden-Baden	Baden-Baden									2825297	48.78232	9.17702
	Badia di Cantignano (Capannori, Provinz Lucca)											
	Baffinland											
Bagrationowsk (Багратио́новск)	Bagrationowsk (Багратио́новск)									579760	54.38714	20.64372
Bailleul	Bailleul									3035359	50.73592	2.73594
	Baining, Gazelle- Halbinsel											
	Baldenburg (Westpreußen)											
Bali	Bali									1650534	-8.33333	115
Bali (Kamerun)	Bali (Kamerun)									8521737	5.89548	10.03395
	Ballenstedt a/H											
	Balve (Bezirk Dortmund/Westfalen)											
Bamberg	Bamberg									2952984	49.89873	10.90067
Bamenda (Kamerun)	Bamenda (Kamerun)									2234974	5.9597	10.14597
	Bamum (Kamerun)	Bamum, Volksgruppe										
	Bandjermasin (Südost-Borneo)											
Bangalore (Indien)	Bangalore (Indien)									1277333	12.97194	77.59369
Bangkok (Thailand)	Bangkok (Thailand)	Bangkok	Bangkok (Siam)							1609350	13.75398	100.50144
	Bangladesch (Bengalen)											
Barcelona (Spanien)	Barcelona (Spanien)									3128760	41.38879	2.15899
Bari (Italien)	Bari (Italien)									3182351	41.12066	16.86982
Barmen	Barmen									3357087	-22.11144	16.74567
Barranquilla (Kolumbien)	Barranquilla (Kolumbien)									3689147	10.96854	-74.78132
Barsinghausen bei Hannover	Barsinghausen bei Hannover									2900206	52.38639	9.48446
Barth (Pommern)	Barth (Pommern)									6550705	54.3576	12.7142
Baruth (Mark)	Baruth (Mark)									7602464	52.05	13.5
	Barzwitz (bei Rügenwalde)											
Basel (Schweiz)	Basel (Schweiz)	Basel								2661604	47.55839	7.57327
Batak (Sumatra	Batak (Sumatra	Batakgebiet (Sumatra)								6716409	3.0971	99.0513
	Batavia (heute: Jakarta) (auf Java, Indonesien)											
	Batu Djadjar (Java)											
Bautzen	Bautzen									2951881	51.18035	14.43494
Bayaka	Bayaka									8276059	-5.40981	18.47444
Bayamon (Puerto Rico)	Bayamon (Puerto Rico)									4562831	18.39856	-66.15572
Bayern	Bayern									2951839	49	11.5
Bayreuth	Bayreuth									2951825	49.94782	11.57893
	Bazentin le Petit (bei Albert) (Frankreich)											
	Beagle Bay (Nordwest-Australien)											
Beeskow (Mark)	Beeskow (Mark)									11977758	52.16456	14.32992
Beijing (Peking) (China)	Beijing (Peking) (China)	Beijing (Peking) 北京	Beijing (Peking)							1816670	39.9075	116.39723
	Beilngries (Pfalz)											
Beira	Beira									1052373	-19.84361	34.83889
Beirut	Beirut									276781	33.89332	35.50157
Belem (Brasilien)	Belem (Brasilien)									3405870	-1.45583	-48.50444
Belgaum (Indien)	Belgaum (Indien)	Belagavi (Bundesstaat Karnataka)								1276533	15.85212	74.50447
Belgien	Belgien									2802361	50.75	4.5
Benares	Benares									1253405	25.31668	83.01041
Bengalen	Bengalen									1275004	22.56263	88.36304
Benin	Benin	Benin?								2395170	9.5	2.25
Bergedorf (bei Hamburg)	Bergedorf (bei Hamburg)									7290243	53.48462	10.22904
Bergen	Bergen									3161732	60.39299	5.32415
Berkeley, California	Berkeley, California									5327684	37.87159	-122.27275
Berlin	Berlin	Berlin, (1901)	Berlin, (kurzzeitig 1907)	Berlin, Erwerbungsvorgang	Berlin, als Gesandter (1886)		Berlin, https://de.wikipedia.org/wiki/Ernst_K%C3%BChnel	Berlin, tätig für bzw. im Museum für Völkerkunde Berlin	Berlin, um 1890	2950159	52.52437	13.41053
Berlin (Charlottenburg)	Berlin (Charlottenburg)									2940187	52.51667	13.28333
Berlin (Halensee)	Berlin (Halensee)									2911560	52.49401	13.27999
Berlin (Karolinenhof)	Berlin (Karolinenhof)									2892721	52.39231	13.63484
	Berlin oder Schweidnitz (Świdnica)											
	Berlin, Kaiser-Friedrich-Museum											
Berlin-Grunewald	Berlin-Grunewald									2914210	52.48338	13.26586
	Berlinhafen (Matty Inseln)											
	Berlinhafen, Deutsch- Neuguinea											
Bern	Bern									2661552	46.94809	7.44744
	Bezirk Ponape (Deutsch-Mikronesien)											
	Bezirk, Adamaua											
	Bezirk, Bamenda (Kamerun)											
Bezirk, Charlottenburg	Bezirk, Charlottenburg									2940187	52.51667	13.28333
	Bezirk, Dschung											
Bezirk, Lichtenberg	Bezirk, Lichtenberg									2878102	52.51395	13.49975
	Bezirk, Lindi											
Bezirk, Mödling (bei Wien / Österreich)	Bezirk, Mödling (bei Wien / Österreich)									2781463	48.13333	16.15
Bezirk, Pankow	Bezirk, Pankow									2855598	52.56926	13.40186
Bezirk, Schöneberg	Bezirk, Schöneberg									2836788	52.49801	13.3443
Bezirk, Steglitz	Bezirk, Steglitz									2829109	52.45606	13332
Bezirk, Treptow	Bezirk, Treptow									2821292	52.48863	13.4586
Bezirk, Wilmersdorf	Bezirk, Wilmersdorf	Bezirk, Wilmersdorf)								2808473	52.48333	13.31667
Bezirk, Zehlendorf	Bezirk, Zehlendorf									2805059	52.43333	13.25
Bhutan	Bhutan									1252634	27.5	90.5
	Bialystok, vgl. Inv.eintrag zu I A 3535											
Bielefeld	Bielefeld									2949186	52.03333	8.53333
	Bietigheim-Bissingen (bei Ludwigsburg)											
	Biganzolo (Italien)											
	Bijâpur (Bombay)											
	Bindjey											
Binningen (Schweiz)	Binningen (Schweiz)									2661499	47.54021	7.56932
Bipinde (Kamerun)	Bipinde (Kamerun)									2234002	3.07791	10.40907
	Birgel bei Düren (Rheinland)											
Birma	Birma									1327865	21	96
Bismarck-Archipel	Bismarck-Archipel									2099398	-5	150
	Bismarckburg (Togogebiet)											
Bixschoote	Bixschoote									2801935	50.92795	2.86267
Blankenese	Blankenese									2948066	53.55698	9.8059
Blankenfelde (Brandenburg)	Blankenfelde (Brandenburg)									6551178	52.3333	13.4
Blasewitz-Dresden	Blasewitz-Dresden	Blasewitz								2948000	51.05305	13.79831
Bloemfontein	Bloemfontein									1018725	-29.12107	26214
Bludenz (Vorarlberg)	Bludenz (Vorarlberg)									2781680	47.15476	9.82255
Blumenau	Blumenau									3469968	-26.91944	-49.06611
Blumenthal	Blumenthal									2960752	49.74492	6.26564
Bochum	Bochum									2947416	51.48165	7.21648
Bogota (Kolumbien)	Bogota (Kolumbien)	Bogotá								3688689	4.60971	-74.08175
Bolama (Guinea-Bissau)	Bolama (Guinea-Bissau)	Bolama (Guinea)								2374688	11.57694	-15.47611
Bolivien	Bolivien	Bolvien								3923057	-17	-65
	Bolonga (Italien)											
	Bolschakowo (Russland)											
Bombay (Indien)	Bombay (Indien)	Bombay (Britisch-Indien)	Bombay							1275339	19.07283	72.88261
Bonn	Bonn									6296510	50.87894	7.12292
Boppard (am Rhein)	Boppard (am Rhein)									10299641	50.21	7.63
Bordeaux (Frankreich)	Bordeaux (Frankreich)									3031582	44.84044	-0.5805
	Bordesholm (bei Kiel)											
	Borenzhof [?] bei Oberwaldach (Baden)											
Bormó	Bormó									12299767	8.78636	-77.62518
	Born a.d. Darss (Kreis Franzburg)											
Borneo	Borneo									1648148	1	114
Boston, Massachusetts, USA	Boston, Massachusetts, USA									4930956	42.35843	-71.05977
Bougainville	Bougainville									2089470	-6	155
	Bourg-la-Reine (Hauts-de-Seine)‏											
Brandenburg/Havel	Brandenburg a.d. Havel	Brandenburg/Havel								2945358	52.41667	12.55
Brannenburg	Brannenburg									2945165	47.73996	12.09166
Brasilien	Brasilien									3469034	-10	-55
Brass (Niger-Delta)	Brass (Niger-Delta)									8638097	4.36648	6.45462
Braunsberg (Ostpreußen)	Braunsberg (Ostpreußen)									3102677	54.37971	19.81959
Braunschweig	Braunschweig									2945024	52.26594	10.52673
Bremen	Bremen									2944388	53.07582	8.80717
Bremerhaven	Bremerhaven									2944368	53.55357	8.57553
Bremerhaven-Geestemünde	Bremerhaven-Geestemünde									2922109	53.53294	8.59446
Breslau (Schlesien)	Breslau (heute Wrocław, Polen)	Breslau (Wrocławia), Schlesien	Breslau (Schlesien)	Breslau						3081368	51.1	17.03333
Brieg	Brieg									2981280	48.51513	-2.76838
	Brighton (Großbritannien)											
	Britisch-Guayana											
	Britisch-Indien											
	Britisch-Neuguinea											
	Britisch-Neuguinea, Santa-Cruz-Inseln											
	Britisch-Ostafrika											
	Britisch-Tibet											
British Columbia (Kanada/Canada)	British Columbia (Kanada/Canada)									7281922	49.08333	-122.35
Brixton	Brixton									11495349	18.02039	-77.31744
Bromberg	Bromberg									3102014	53.1235	18.00762
Brooklyn	Brooklyn									5110302	40.6501	-73.94958
Broom	Broom									5909604	46.99691	-79.91291
Brühl bei Köln	Brühl bei Köln									2943320	50.82928	6.90499
Brüssel	Brüssel									2800866	50.85045	4.34878
Brüssel (Belgien)	Brüssel (Belgien)	Brüssel (Bruxelles)								2800866	50.85045	4.34878
Buchara (Usbekistan)	Buchara (Usbekistan)									1217662	39.77026	64.43069
Budapest (Ungarn)	Budapest (Ungarn)	Budapest								3054643	47.49835	19.04045
Buea	Buea									2233410	4.15342	9.24231
Buenos Aires (Argentinien)	Buenos Aires (Argentinien)	Buenos Aires	Buenos Aires (Argentinen)							3435910	-34.61315	-58.37723
	Buer in Westfalen											
	Bukoba (Ostafrika)											
Bulawayo	Bulawayo									894701	-20.15	28.58333
Buloa	Buloa									12290964	-5.11056	119.43861
	Bumbuli (Usambara)											
	Bundesstaat, Arizona											
	Bundesstaat, Louisiana											
	Bundesstaat, Mato Grosso	Bundesstaat, Matto Grosso										
	Bundesstaat, Missouri											
Bundesstaat, New Mexico	Bundesstaat, New Mexico									5126705	43.45951	-76.22882
Bundesstaat, Northern Territory	Bundesstaat, Northern Territory									7274861	42.16956	-79.40395
	Bundesstaat, Virgina											
	Bundesstaat, Western Australia											
Bunzlau	Bunzlau									3102987	51.26418	15.5697
Burgstall	Burgstall									3170040	46.60949	11.19313
Burundi	Burundi									433561	-3.5	30
Buschir	Buschir									139817	28.96887	50.83657
Bërut [Beirut]	Bërut [Beirut]									276781	33.89332	35.50157
Bückeburg	Bückeburg									2942159	52.26065	9.04939
Büderich	Büderich									3205791	51.54591	7.87548
Bützow	Bützow									2940476	53.84133	11.98145
Calabrien	Calabrien									2525468	39	16.5
	Calamba (Provinz La Laguna, Luzon)											
	Calchaquigebiet											
Calcutta (Indien)	Calcutta (Indien)	Calcutta (Kalkutta)	Calcutta							1275004	22.56263	88.36304
Camberwell (London)	Camberwell (London)									3345438	51.4739	-0.09381
Cambridge	Cambridge (Großbritannien)	Cambridge								4931972	42.3751	-71.10561
Campden	Campden									5914254	43.13341	-79.4329
Campeche	Campeche									3531730	18.83333	-90.25
Cape Colony	Cape Colony									2275086	6.93039	-10.9945
Cape Town (Südafrika)	Cape Town (Südafrika)	Capetown (Südafrika)								3369157	-33.92584	18.42322
Caracas (Venezuela)	Caracas (Venezuela)									3646738	10.48801	-66.87919
Carlshafen	Carlshafen									2892867	51.64263	9.45477
	Carlsruhe (Oberschlesien)											
Carlstadt	Carlstadt									5096289	40.84038	-74.0907
Cartago	Cartago									3624370	9.86371	-83.9195
Cartago (Costa Rica)	Cartago (Costa Rica)									3624370	9.86371	-83.9195
	Casabinda											
Casapalca (Peru)	Casapalca (Peru)									3967482	-11085	-76.60306
	Casas Grandas											
Celebes (Sulawesi)	Celebes (Sulawesi)									9062340	-2.13154	120.28888
Celle (Hannover)	Celle (Hannover)	Celle								10118201	52.62564	10.08608
	Cermakowitz/Cermákovice (Mähren, Tschechische Republik)											
Ceylon (Sri Lanka)	Ceylon (Sri Lanka)	Ceylon								1227604	7.60632	80.71648
Chaco (Argentinien)	Chaco (Argentinien)									3861887	-26.33333	-60.5
Chaco (Paraguay)	Chaco (Paraguay)									3444449	-23	-60
Chamonix	Chamonix									3027301	45.92375	6.86933
Charlottenburg	Charlottenburg bei Berlin	Charlottenburg (bei Berlin)	Charlottenburg							2940187	52.51667	13.28333
Charlottenburg-Westend	Charlottenburg-Westend									2810538	52.51708	13.27636
Chascomus (Argentinien)	Chascomus (Argentinien)									3435446	-35.47745	-57.9776
Chattanooga (Tennessee)	Chattanooga (Tennessee)									4612862	35.04563	-85.30968
Chefoo (Yantai)	Chefoo (Yantai)									1787093	37.47649	121.44081
Chemnitz	Chemnitz									2940132	50.8357	12.92922
Chevillon	Chevillon									3025316	47.96197	2.62601
Chicago	Chicago (Vereinigte Staaten, USA)	Chicago								4887398	41.85003	-87.65005
Chile	Chile									3895114	-30	-71
China	China									1814991	35	105
	China, China zu prüfen											
	China, Taiwan (Formosa), Korea, Japan, Südsee											
Chinde	Chinde									1024697	-18.58111	36.45861
	Chinesisch-Turkestan											
Chiromo	Chiromo									1864550	34.40773	129.37057
	Chotscho											
Christiania	Christiania									2623186	55.67346	12.59765
Christmas Lake Valley (Oregon)	Christmas Lake Valley (Oregon)									5719183	43.23627	-120.67018
	Clayoquot (Vancouver Island)											
Coban (Guatemala)	Coban (Guatemala)									3598119	15.47025	-90.37455
Coblenz (Koblenz)	Coblenz (Koblenz)									2886946	50.35357	7.57883
Coburg	Coburg									2939951	50.25937	10.96384
Cochinchina	Cochinchina									1573261	11	107
Colima (Mexiko)	Colima (Mexiko)									4013513	19.13333	-103.9
	Collingwood Bay (Britisch Papua Neuguinea)											
	Colmar, nachweislich von 24.4.1896-30.9.1899											
Colombo (Ceylon)	Colombo (Ceylon/Sri Lanka)	Colombo (Ceylon)								1224793	6.93333	79.86667
	Conceicaodo do Araguaya (Brasilien)											
Concepción (Chile)	Concepción (Chile)									3893894	-36.82699	-73.04977
	Constantia/Wynberg (Kapstadt)											
	Constantinopel (Konstantinopel)											
Conway (Alaska)	Conway (Alaska)									5859820	64.78056	-164.27222
Cooktown	Cooktown									7668701	-15.4447	145.18401
Cora (Mexiko)	Cora (Mexiko)									3980711	21.73633	-105.00504
Cordoba (Argentinien)	Cordoba (Argentinien)	Cordoba								3860259	-31.40648	-64.18853
Coron (Maine-et-Loire)	Coron (Maine-et-Loire)									3023557	47.12763	-0.64703
Cossebaude	Cossebaude									12500813	51.08972	13.62558
Costa Rica	Costa Rica									3624060	10	-84
Cottbus	Cottbus									2939811	51.75769	14.32888
	Courbevoie (bei Asnières/Seine)											
Crawfordsville (Indiana)	Crawfordsville (Indiana)									12213089	40.04038	-86.8933
Cresson (Pennsylvania)	Cresson (Pennsylvania)									5185861	40.45979	-78.59168
Crossen	Crossen									2883557	50.97494	11.9781
	Cuddalore (Britisch Indien)											
Curitiba (Brasilien)	Curitiba (Brasilien)									3464975	-25.42778	-49.27306
	Cuttack (Katak/Cuttek)											
Cuyaba (Cuiabá)	Cuyaba (Cuiabá)	Cuyaba								3465038	-15.59611	-56.09667
Cuzco	Cuzco									3941584	-13.53188	-71.96701
	Cöln (Köln)	Cöln [Köln]	Cöln am Rhein (Köln)									
	Cöslin											
Danzig	Danzig	Danzig (Schichau)	Danzig (Westpreußen)							3099434	54.35227	18.64912
Dar-es-Salaam	Dar es Saalam	Dar-es-Salaam	Daressalam (Dar-es-Salaam)	Daressalam (Dar-es-Salaam) (Tansania / Deutsch-Ostafrika)	Daressalam (Dar-es-Salam)					160263	-6.82349	39.26951
Darmstadt	Darmstadt									2938913	49.87167	8.65027
	Darnley Insel (Australien)											
David (Provinz Chiriquí)	David (Provinz Chiriquí)									3711668	8.42729	-82.43085
Dehra Dun	Dehra Dun									1273313	30.32443	78.03392
Delaware	Delaware									4142224	39.00039	-75.49992
Delft (Niederlande)	Delft (Niederlande)									2757345	52.00667	4.35556
Deli (Sumatra)	Deli (Sumatra)									1214800	3879	98633
Den Haag	Den Haag									2747373	52.07667	4.29861
Dessau	Dessau									2937959	51.83864	12.24555
Detmold	Detmold									2937936	51.93855	8.87318
	Deutsch Krone (heute Walcz, Polen)											
	Deutsch-Lissa, Leśnica (ehemals Deutsch Lissa) ist ein Stadtteil im Westen der Stadt Breslau											
	Deutsch-Neu-Guinea (Bismarckarchipel)											
Deutsch-Neuguinea	Deutsch-Neuguinea									7733077	15213	145.7565
	Deutsch-Ostafrika											
	Deutsch-Rixdorf											
	Deutsches Reich											
Dhubri (Assam)	Dhubri (Assam)									1272694	26.01856	89.98564
	Dissen (Hannover)											
Distrikt, Deli	Distrikt, Deli									295629	31.79213	34.64966
	Distrikt, Ghazipur											
	Distrikt, Haut-Uele											
	Distrikt, Storneberg											
	Distrikthauptstadt, Songea											
	Djokdjakarta (Java)											
Dole (Frankreich)	Dole (Frankreich)									3021263	47.09225	5.48966
Dordrecht	Dordrecht									2756669	51.81	4.67361
	Dorf, Bindow (bei Königs Wusterhausen)											
	Dorf, Mdaburu											
Dorr	Dorr									3021015	42.48483	1.94053
Dresden	Dresden									2935022	51.05089	13.73832
Dresden (Sachsen)	Dresden (Sachsen)									2935022	51.05089	13.73832
Dresden-Blasewitz	Dresden-Blasewitz									2948000	51.05305	13.79831
Duala	Duala	Duala (Kamerun)	Duala (Westafrika)							2232593	4.04827	9.70428
Duke of York Inseln	Duke of York Inseln									2097930	-4.18892	152.42741
	Dume (Dahomey)											
	Dumebezirk (Kamerun)											
Dunkerque (Dünkirchen)	Dunkerque (Dünkirchen)									3020686	51.0344	2.37681
Durban	Durban	Durban (Südafrika)								1007311	-29.8579	31.0292
Dänemark	Dänemark									2623032	56	10
Düsseldorf	Düsseldorf									2934246	51.22172	6.77616
East London	East London									4839416	41.35565	-72.09952
	Eberfeld											
Ebernhahn	Ebernhahn									6554126	50.4667	7.76667
Eberswalde	Eberswalde									2933882	52.83492	13.81951
Eckernförde	Eckernförde									2933627	54.46854	9.83824
Ecuador	Ecuador									3658394	-1.25	-78.25
	Edinburgh (Großbritannien)											
	Eichstedt/Altmark (nördlich von Magdeburg)											
Eilenburg	Eilenburg									2931871	51.45984	12.63338
Eisenach	Eisenach									2931574	50.9807	10.31522
El Callao	El Callao									3946083	-12.05162	-77.13452
Elberfeld	Elberfeld									4257070	38.15977	-87.44835
	Elberfeld (heute zu Wuppertal)											
Elizabeth (New Jersey)	Elizabeth (New Jersey)									5097598	40.66399	-74.2107
Elsfleth	Elsfleth									6557487	53.23	8.4527
	Emmerich (am Niederrhein)											
England	England									11919979	44	-71
	England (Großbritannien)											
	Erbach bei Ulm											
Erding	Erding									2929715	48.30603	11.90686
Erfurt	Erfurt									2929670	50.9787	11.03283
Erlangen	Erlangen									2929567	49.59099	11.00783
	Eschweiler-Pumpe											
Essen	Essen									2928810	51.45657	7.01228
Essen (Ruhr)	Essen (Ruhr)									6457352	51.40325	6.94001
Essen a.d. Ruhr	Essen a.d. Ruhr									6457352	51.40325	6.94001
Essen-Altenessen	Essen-Altenessen									2957704	51.48696	7.01052
Essex	Essex									4942807	42.46676	-70.94949
Etén (Peru)	Etén (Peru)									3697083	-6.90806	-79.86417
Eupen	Eupen									2798573	50.6279	6.03647
Eutin (Holstein)	Eutin (Holstein)									2928381	54.13503	10.61148
	Expeditionslager, Wolfshaven am Luala											
	Eylau (Ostpreußen)											
Eßlingen	Eßlingen									2928751	48.73961	9.30473
	Farenda Gratidão (Angola)											
Feldbach (Steiermark, Österreich)	Feldbach (Steiermark, Österreich)									2779681	46.93003	15.83734
Feldkirch	Feldkirch									2779674	47.23306	9.6
	Feuerland (Grande Isla de Terra Fuego)											
Fianga	Fianga									2432638	9.96667	15.21667
Fidji	Fidji									2205218	-18	178
Fidschi-Inseln	Fidschi-Inseln									2205217	-18	178
	Fiji, Neu-Kaledonien, Salomon-Inseln											
Finkenkrug	Finkenkrug									2926752	52.56128	13.04756
	Finnisch-Lappland											
Finschhafen	Finschhafen									7731024	-6.62175	147.85405
Flandern	Flandern									2797656	51.05	3.71667
Fleurier (Schweiz)	Fleurier (Schweiz)									2660758	46.90224	6.58253
Fleurieu-sur-Saône	Fleurieu-sur-Saône									3018303	45.86095	4.84633
Florenz (Toscana / Italien)	Florenz (Toscana / Italien)									3176959	43.77925	11.24626
Formosa	Formosa									1668284	24	121
Formosa (Taiwan)	Formosa (Taiwan)									1668284	24	121
	Formosa (heutiges Taiwan)											
	Forsthaus Priemern bei Seehausen (Altmark)											
Foumban	Foumban									2231506	5.72662	10.89865
	Frankenhausen, Schwarzburg-Rudolstadt											
Frankfurt	Frankfurt	Frankfurt a. M.	Frankfurt a./M	Frankfurt a./M.	Frankfurt a./O.	Frankfurt a.M.	Frankfurt a.O.	Frankfurt am Main		2925533	50.11552	8.68417
	Frankfurt a./M.- Praunheim											
Frankreich	Frankreich									3017382	46	2
Franzburg	Franzburg									6550706	54.1833	12.8833
	Französisch Congo (Gabun)	Französisch-Kongo										
Freetown (Sierra Leone)	Freetown (Sierra Leone)									2409306	8.48714	-13.2356
Freiberg	Freiberg	Freiburg	Freiburg (Baden)	Freiburg i.Br.	Freiburg im Breisgau					2925192	50.91089	13.33881
Freienwalde	Freienwalde	Freienwalde (Kreis Barnim)								2953458	52.7873	14.0304
Fribourg (Üechtland/Schweiz)	Fribourg (Üechtland/Schweiz)									2660718	46.80237	7.15128
Friedenau	Friedenau									2924770	52.47133	13.32813
Friedland	Friedland									2924680	52.10493	14.26399
	Friedrich-Wilhelmshafen (Deutsch-Neuguinea)											
Friedrichsruh	Friedrichsruh									2924486	53.53043	10.33971
	Fritzow (bei Kammin/Pommern)											
Gabun	Gabun									2400553	-1	11.75
	Gabun, Republik Kongo, Zentralafrikanische Republik, Tschad											
	Gabès (heute in Tunesien)											
Gandersheim	Gandersheim									2953456	51.87167	10.02537
Garmisch	Garmisch									2922530	47.49209	11.09576
Garmisch-Partenkirchen	Garmisch-Partenkirchen									2922530	47.49209	11.09576
	Gasisi											
	Gebiet, Chaco											
	Gebiet, Chanchamayo											
	Gebiet, Gran Chaco											
	Gebiet, Kilimanjaro											
	Gebiet, Ogawe											
	Gebiet, Sierra del Nayarit											
	Gebiet, Uaupé											
	Gebiet, Xingu (Brasilien)											
	Gebirge, Uluguru											
	Gemeinde, Handschuhsheim (bei Heidelberg)											
Genf	Genf									2660646	46.20222	6.14569
Genf (Schweiz)	Genf (Schweiz)									2660646	46.20222	6.14569
Gent (Gand)	Gent (Gand)									2797656	51.05	3.71667
Genua	Genua									3176219	44.40478	8.94439
Gera	Gera									2921232	50.88029	12.08187
	Germersheim (Rheinhessen)											
Gernrode/Anhalt	Gernrode/Anhalt									2920999	51.72575	11.13876
Geroldsgrün (Bayern)	Geroldsgrün (Bayern)									2920979	50.33333	11.6
Gesundbrunnen	Gesundbrunnen									2920789	52.55035	13.39139
Gießen	Gießen									2920512	50.58727	8.67554
Gilbert-Inseln	Gilbert-Inseln									2110196	0.38319	173.63569
Gits (Flandern)	Gits (Flandern)									2797513	50.99687	3.09564
	Gjövik (Norwergen)											
Glatz (Schlesien)	Glatz (Schlesien)									3096053	50.43488	16.66145
Glauchau	Glauchau									2920020	50.81987	12.54493
Glauchau (Sachsen)	Glauchau (Sachsen)									2920020	50.81987	12.54493
Gleiwitz	Gleiwitz									3099230	50.29761	18.67658
Glogau	Glogau									3099213	51.66361	16.0845
Godesberg	Godesberg									2953455	50.68457	7.15393
	Goldküste											
	Gordemitz bei Eilenburg											
	Gorongtalo (Celebres/Sulawesi)											
Gotha	Gotha									2918752	50.94823	10.70193
	Gouvernement, Livland (Russland)											
	Grabow i./M.											
	Grafenstein bei Klagenfurt (Kärnten)											
Grahamstown	Grahamstown									1000501	-33.30422	26.53276
	Graudenz (Westpreußen)											
Graz (Österreich)	Graz (Österreich)									2778067	47.06667	15.45
Greenwich, Kent	Greenwich, Kent									5221875	41.66038	-71.45589
	Greifenberg i/Pom.											
Greifswald	Greifswald									2917788	54.08905	13.40244
	Greifswald, aus E 999/1891											
	Greifswalde											
Greiz	Greiz									2917737	50.65778	12.19918
	Grenzgebiet, Ghana-Togo											
Gresse (Mecklenburg-Vorpommern)	Gresse (Mecklenburg-Vorpommern)									2917618	53.42915	10.74597
	Gronau in Westfalen											
	Grootfontain (Damaraland)											
Gross Flottbek	Gross Flottbek									2915638	53.5623	9.88688
	Gross Leuthen bei Lübben											
	Gross Schönau (Sachsen)											
Groß Lichterfelde	Groß Lichterfelde									2878018	52.4333	13.30762
	Groß-Lichterfelde (bei Berlin)											
	Groß-Wüstenfelde (bei Teterow/Mecklenburg)											
Großbritannien	Großbritannien									2635167	54.75844	-2.69531
	Großlichterfelde											
	Gräfentonna (bei Gotha)											
Grönland	Grönland									3425505	72	-40
Grünberg (Hessen)	Grünberg (Hessen)									2914432	50.59403	8.95866
Guadalajara (Mexiko)	Guadalajara (Mexiko)									4005539	20.67738	-103.34749
	Guajaquil (Ecuador)											
Guatemala	Guatemala									3595528	15.5	-90.25
Guatemala-Stadt	Guatemala-Stadt									3598132	14.64072	-90.51327
Guayana	Guayana									3645528	8.35122	-62.64102
Guayaquil (Ecuador)	Guayaquil (Ecuador)									3657509	-2.19616	-79.88621
Guinea	Guinea									2420477	10.83333	-10.66667
	Guinea (afrikanische Westküste)											
	Gumbinnen (Ostpreußen)											
	Gut Bennigsen bei Springe											
	Gut Hellenorm (Estland) (Хелленурм, близ Риги)											
	Gut Seeburg											
	Gut, Sandfort bei Osnabrück											
	Guttstadt a./R											
	Gutu (Rhodesien)											
Görlitz	Görlitz									2918987	51.15518	14.98853
	Göteburg (Göteborg)											
	Göteburg (Schweden)											
Göttingen	Göttingen									2918632	51.53443	9.93228
	Gürzenich b/Düren (Rheinland)											
	Güstebiese (Kr. Königsberg/Naumark)											
Güstrow	Güstrow									2913433	53.7972	12.17337
Güstrow (Mecklenburg)	Güstrow (Mecklenburg)									2913433	53.7972	12.17337
Haag (Den Haag)	Haag (Den Haag)									2747373	52.07667	4.29861
Haarlem	Haarlem									2755003	52.38084	4.63683
Haarlem (Niederlande)	Haarlem (Niederlande)									2755003	52.38084	4.63683
Habana (Kuba, Cuba)	Habana (Kuba, Cuba)									3553478	23.13302	-82.38304
	Habelschwerdt (Glatz)											
Hadersleben	Hadersleben									2620964	55.24943	9.48771
Hagen (Westfalen)	Hagen (Westfalen)									2912621	51.36081	7.47168
	Hagen (bei Osnabrück)											
Haiphong (Vietnam)	Haiphong (Vietnam)									1581298	20.86481	106.68345
Haiti	Haiti									3723988	19.07582	-72.29616
Halensee	Halensee									2911560	52.49401	13.27999
Halensee, Berlin	Halensee, Berlin									2911560	52.49401	13.27999
Halle (Saale)	Halle (Saale)									2911522	51.48158	11.97947
Halle a./S.	Halle a./S.									9443239	59.58925	10.85687
Hamburg	Hamburg									2911298	53.55073	9.99302
Hamm	Hamm									2911240	51.68033	7.82089
Hanau	Hanau									2911007	50.13423	8.91418
Hannover	Hannover									2910831	52.37052	9.73322
Hansfelde	Hansfelde									2910779	53.53667	13.79906
	Hanson (Massachusetts, Vereinigte Staaten USA)											
	Hardersleben											
Harrow	Harrow									2647421	51.57142	-0.33371
Hatshausen	Hatshausen									2909269	53.35068	7.47848
	Hauptort Stadtsulza, Bad Sulza (Thüringen)											
	Hauptstadt, Tepii											
Hawaii	Hawaii									5855797	20.78785	-156.38612
Hebron (Ohio)	Hebron (Ohio)									4514004	39.96173	-82.49127
Hechingen	Hechingen									2908495	48.35149	8.96317
Heckelberg	Heckelberg									6551069	52735	13.8577
Hefei (China)	Hefei (China)									1808722	31.86389	117.28083
	Hehlen/Weser											
Heidelberg	Heidelberg									2907911	49.40768	8.69079
Heilbronn	Heilbronn									2907669	49.13995	9.22054
	Heimersheim (/ Ahr)											
	Heimersheim / Ahr											
	Heimersheim/ Ahr											
Helgoland	Helgoland									2906947	54.18213	7.88458
Hellinghausen	Hellinghausen									2906786	51.66484	8.28564
	Herberthöhe											
Herbertshöhe	Herbertshöhe (Papua-Neuguinea)	Herbertshöhe								2093685	-4.3432	152.26867
	Herero (Südafrika)											
Heringsdorf	Heringsdorf									6296506	53.87871	14.15235
Hermannsburg (Landkreis Celle)	Hermannsburg (Landkreis Celle)									2906015	52.83254	10.08957
Herrnhut	Herrnhut									4796275	18.33273	-64.90181
	Hersburg (bei Weimar)											
	Hervey Inseln (Deutsch-Neuguinea)											
	Herzogswalde bei Wilsdruff (Sachsen)											
Hessen	Hessen									2905330	50.55	9
Hikari	Hikari									2112745	35.65	140.51667
Hildburghausen (Thüringen)	Hildburghausen (Thüringen)									2904804	50.42553	10.73184
Hilden	Hilden									2904795	51.16818	6.93093
Hildesheim	Hildesheim									2904789	52.15077	9.95112
Hillcrest	Hillcrest									11351553	14.01115	-60.97083
Hiltrup	Hiltrup									2904598	51.90629	7.64126
	Himalayaländer											
	Hinterland von Mozambique (Ostafrika)											
Hiogo (Hyogo)	Hiogo (Hyogo)									1859171	34.6913	135183
Hirschberg	Hirschberg									2776188	47.35944	9.99917
Hirschberg (Schlesien)	Hirschberg (Schlesien)									3097257	50.89973	15.72899
	Hlukhiv (Nähe von Grojec)											
Hobart (Tasmania)	Hobart (Tasmania)									2163355	-42.87936	147.32941
Hoboken (New Jersey)	Hoboken (New Jersey)									5099133	40.74399	-74.03236
	Hoffeld (b. Kiel)											
	Hohen Lychen (Uckermark)											
	Hohenheim bei Stuttgart											
Hohenstein-Ernstthal	Hohenstein-Ernstthal									2901420	50.80064	12.71287
Hokkaido (Japan)	Hokkaido (Japan)									11257417	43.51669	142.44873
	Hollabrunn (bei Wien)											
	Holländisch Neu-Guinea											
Homberg	Homberg									2899479	50.73108	8.99644
Honduras	Honduras									3608932	15	-86.5
Hong Kong	Hong Kong									1819729	22.27832	114.17469
Honolulu (Hawaii)	Honolulu (Hawaii)	Honolulu								5856195	21.30694	-157.85833
Hopi	Hopi									6024577	49.00861	-73.23611
Hubertushöhe	Hubertushöhe									3334969	47.08333	15.4
Huichol	Huichol									9273699	21.92528	-103.8587
Husum	Husum									2897132	54.4858	9.05239
	Hyôgo-Osaka, ab 1885 Generalkonsul											
Höchstadt an der Aisch	Höchstadt an der Aisch									2903016	49.70617	10.81329
	Hörde (heute Dortmund)											
Höxter	Höxter									2898321	51.77501	9.38155
Illinois	Illinois									4896861	40.00032	-89.25037
Indien	Indien									1269750	22	79
	Indischer Archipel											
Indochina	Indochina									1579995	18	101
Indonesien	Indonesien									1643084	-5	120
	Indonesischer Archipel											
Inning (Ammersee)	Inning (Ammersee)									2895938	48.07636	11.15232
Innsbruck	Innsbruck									2775220	47.26266	11.39454
	Insel, Alsen (Dänemark)											
	Insel, Ponape (Karolinen/Mikronesien)											
	Insel, Risøy bei Tromsø (Norwegen)											
	Insel, Sachalin, Ainu, 1911	Insel, Sachalin										
	Insel, Sangir											
	Insel, Sulawesi (Celebes)											
	Insel, Sumatra											
	Insel, Ureparapara (Banksgruppe)											
Instanbul (Türkei)	Instanbul (Türkei)									12200054	41.06371	28.80451
Insterburg	Insterburg									568595	54.63345	21.81557
Iran	Iran									130758	32	53
Irkutsk	Irkutsk									2023469	52.29795	104.29585
Italien	Italien									3175395	42.83333	12.83333
	Jacobshavn (West-Grönland)											
	Jakutsk (Sibirien)											
Jaluit	Jaluit									7303501	6	169.58333
Jaluit (Marshallinseln)	Jaluit (Marshallinseln)									7303501	6	169.58333
Jamaika	Jamaika									3489940	18.16667	-77.25
Japan	Japan									1861060	35.68536	139.75309
	Japan (Insel Sachalin)											
	Jarkend											
Jaunde	Jaunde									2220957	3.86667	11.51667
Java	Java									1642673	-7.49167	110.00444
Java (Indonesien)	Java (Indonesien)	Java, Sumatra								1642673	-7.49167	110.00444
Java (Jawa)	Java (Jawa)									1642673	-7.49167	110.00444
Jawa	Jawa									1642673	-7.49167	110.00444
Jena	Jena									2895044	50.92878	11.5899
Jesus Maria	Jesus Maria									8129265	8.74493	-72.51967
Johannesburg	Johannesburg									993800	-26.20227	28.04363
Johannistal	Johannistal									2894762	54.35633	10.88193
Johore	Johore									1732752	1.4655	103.7578
Jokohama (Yokohama) (Japan)	Jokohama (Yokohama) (Japan)									1848354	35.43333	139.65
Jolo (Sulu-Archipel)	Jolo (Sulu-Archipel)									1685367	6	121
Kairo (Cairo)	Kairo (Cairo)									360630	30.06263	31.24967
Kairo/Cairo (Ägypten)	Kairo/Cairo (Ägypten)	Kairo (Ägypten)								360630	30.06263	31.24967
	Kaiser-Wilhelms-Land (Deutsch-Neuguinea)											
	Kaiserin-Augusta-Fluss (Neuguinea)											
	Kaiserreich, China											
	Kaiserreich, Russland											
	Kaiserreich, Österreichisch-Ungarn											
Kalabar	Kalabar									2346229	4.95893	8.32695
Kalifornien	Kalifornien									11071615	34.68743	-116.78467
Kalkutta (Calcutta) (Indien)	Kalkutta (Calcutta) (Indien)	Kalkutta (Calcutta)								1275004	22.56263	88.36304
Kallara (New South Wales)	Kallara (New South Wales)									2161448	-30.89111	144.51553
Kambodscha	Kambodscha									1831722	13	105
Kamerun	Kamerun									2233387	6	12.5
	Kamraniye (Persien)											
Kamtschatka	Kamtschatka									2125072	55	159
Kanada	Kanada									6251999	60.10867	-113.64258
Kanada (Canada)	Kanada (Canada)									6251999	60.10867	-113.64258
Kandy (Indien)	Kandy (Indien)									1224392	7.4098	80.5862
Kansas	Kansas									4273857	38.50029	-98.50063
Kanton	Kanton									3191281	43.84864	18.35644
Kanton (China)	Kanton (China)	Kanton/Canton (China)								1809858	23.11667	113.25
Kap Verde Inseln	Kap Verde Inseln									3374766	16	-24
Kapstadt (Südafrika)	Kapstadt (Südafrika)									3369157	-33.92584	18.42322
	Kapurthala (Nordwest-Indien, Punjab)											
	Karkodje/Carcoggi (heute Sannar am blauen Nil)											
Karlsbad	Karlsbad									5334223	33.15809	-117.35059
Karlsbad (Karlovy Vary)	Karlsbad (Karlovy Vary)									3073803	50.23271	12.87117
Karlsruhe	Karlsruhe									2892794	49.00937	8.40444
Karlsruhe (Baden)	Karlsruhe (Baden)									2892794	49.00937	8.40444
Karolinen	Karolinen									11185873	7.23579	147.77573
	Karolinen (Ponapé, Pohnpei)											
	Kasdorff (bei Kleeth in Mecklenburg)											
Kashgar	Kashgar									1280849	39.46718	75.98675
Kassel	Kassel									2892518	51.31667	9.5
Katanga	Katanga									11288213	-10.46667	27.81667
Katanga (Kongo)	Katanga (Kongo)									923192	-11.6253	27.57979
Kattowitz	Kattowitz									3096472	50.25841	19.02754
Kauai (Hawaii)	Kauai (Hawaii)									5848514	22.01108	-159.70544
Kaukasus	Kaukasus									573081	42.5	45
Kaulsdorf	Kaulsdorf									2892052	50.6167	11.43295
	Kemen (Posen)											
	Kenhardt (Cape Colony)											
Kenia	Kenia									192950	1	38
Kessenich	Kessenich									2794504	51.15086	5.8233
	Kiautschou											
	Kiautschou/Tsingtau (Qingdao), Pachtgebiet/Schutzgebiet lt. Staatsvertrag											
	Kiboscho											
Kiel	Kiel									2891122	54.32133	10.13489
	Kigoma bei Ujiji											
Kilimatinde	Kilimatinde									157448	-5.85	34.95
Kilossa	Kilossa									157403	-6.83333	36.98333
Kilwa	Kilwa									6297357	-8.91047	39.50851
	Kilwa, Hinrichtung											
Kimberley	Kimberley									990930	-28.73226	24.76232
	Kinena (Kongogebiet), südöstlich von Kinangani											
Kionga	Kionga									204544	-4.72271	26.88974
Kirchheimbolanden (Pfalz)	Kirchheimbolanden (Pfalz)									6557912	49.66165	8.0157
	Kirgisen											
	Kirnbach bei Wolfach (Baden)											
Kitzeberg	Kitzeberg									2890173	54.35824	10.18489
Kitzingen	Kitzingen									6296850	49.74306	10.20056
	Kl. Bengerstorf											
Klein Popo (Togo)	Klein Popo (Togo)									2367990	6.22798	1.5919
	Klein Zschachwitz (bei Dresden)											
	Klein Zscharnitz											
Klein-Popo	Klein-Popo									2367990	6.22798	1.5919
	Klein-Sedlitz											
Kloster Malchow (Mecklenburg)	Kloster Malchow (Mecklenburg)									2887445	53.47135	12.43355
Kobe	Kobe									1859171	34.6913	135183
Kobe (Japan)	Kobe (Japan)									1859171	34.6913	135183
Koblenz (Coblenz)	Koblenz (Coblenz)	Koblenz								2886946	50.35357	7.57883
	Koepang (Kupang) (Timor)											
Kolberg (Pommern)	Kolberg (Pommern)									3095795	54.17565	15.58342
	Kolonie, Britisch-Birma											
	Kolonie, Britisch-Indien											
	Kolonie, Britisch-Neuguinea											
	Kolonie, Britisch-Ostafrika											
	Kolonie, Deutsch-Ostafrika											
	Kolonie, Französisch-Kongo											
	Kolonie, Niederländisch-Indien											
	Kolonie, Niederländisch-Neuguinea											
	Kolonie, Portugiesisch-Ostafrika											
	Kolonie, Portugiesisch-Westafrika											
	Kolonie, Singapore											
	"Kolonie/""Schutzgebiet"", Deusch-Ostafrika"											
	"Kolonie/""Schutzgebiet"", Deutsch-Neuguinea"											
	"Kolonie/""Schutzgebiet"", Deutsch-Ostafrika"											
	"Kolonie/""Schutzgebiet"", Deutsch-Südwestafrika"											
	"Kolonie/""Schutzgebiet"", Kamerun"											
	"Kolonie/""Schutzgebiet"", Niederländisch-Indien"											
	"Kolonie/""Schutzgebiet"", Samoa"											
	"Kolonie/""Schutzgebiet"", Togo"	"Kolonie/""Schutzgebiet"", Togoland"										
	"Kolonie/""Schutzgebiet"", Victoria"											
Kolumbien	Kolumbien									3686110	4	-73.25
Kolyma	Kolyma									2130849	71	170
	Komotau, Böhmen (heute: Chomutov, Tschechien)											
Kongo	Kongo									2260494	-1	15.5
Kongo (Demokratische Republik)	Kongo (Demokratische Republik)									203312	-2.5	23.5
	Kongo-Staat											
	Kongulo am Dja (Kamerun)											
Konitz	Konitz									3101672	53.69554	17.55701
Konstantinopel	Konstantinopel									745044	41.01384	28.94966
Konstanz	Konstanz									2885679	47.66033	9.17582
Kopenhagen	Kopenhagen									2618425	55.67594	12.56553
Kopenhagen (Dänemark)	Kopenhagen (Dänemark)									2618425	55.67594	12.56553
	Koprieve (Polen)											
Korea	Korea	Korea, siehe Bemerkungen	Korea, Einzelstück ??							1835841	36.5	127.75
	Korsör/Kiel, zwischen Korsör und Kiel (auf See)											
	Koszalin (deutsch: Köslin)											
	Kraatz bei Gransee (Mark Brandenburg)											
	Krasnojarsk, Quelle ??											
	Kreis, Apenrade, Geburtsort lt. Katalog 1901											
	Kreisstadt, Neurode (Grafschaft Glatz in Schlesien)											
Kroatien	Kroatien									3202326	45.16667	15.5
Kronberg (Taunus)	Kronberg (Taunus)									2883754	50181	8513
	Kronkolonie, Labuan											
Kronprinzenkoog (Holstein)	Kronprinzenkoog (Holstein)									6551343	53.9667	8.96667
	Krotoszyn (Krotoschin) Provinz Posen/Preußen											
Krumpendorf/Wörthersee (Österreich)	Krumpendorf/Wörthersee (Österreich)									2773321	46.62526	14.21664
Kuibis	Kuibis									3355876	-26.69001	16.86019
	Kulm (Westpreußen)											
Kyôto (Japan)	Kyôto (Japan)									1857910	35.02107	135.75385
Köln	Köln									2886242	50.93333	6.95
	Königreich, Benin											
	Königreich, Dahomey											
	Königreich, Mpororo											
	Königreich, Siam											
Königsberg	Königsberg									2885916	50.0808	10.56761
Königsberg (Neumark)	Königsberg (Neumark)									3101675	52.96389	14.42797
	Königsberg (Ostpreußen)											
	Königsberg (i.Pr.)	Königsberg i/Pr.										
	Königsberg [Kbg]											
Könitz (Thüringen)	Könitz (Thüringen)									2885723	50.64979	11.48809
	Köpenik											
Köthen (Cöthen)	Köthen (Cöthen)									2885237	51.75185	11.97093
	Küste vor Westafrika											
	La Crosse (Wisconsin, Vereinigte Staaten (USA))											
La Paz (Bolivien)	La Paz (Bolivien)									3911925	-16.5	-68.15
La Tour-de-Peilz (Schweiz)	La Tour-de-Peilz (Schweiz)									2660008	46.45312	6.85856
Labrador	Labrador									6354959	52	-56
Lagos	Lagos									2332459	6.45407	3.39467
Lahore (Pakistan)	Lahore (Pakistan)	Lahore (Indien)	Lahore (Britisch-Indien)							1172451	31558	74.35071
	Lahr (i.B.)											
Lamberg	Lamberg									537082	61.66528	30.78747
Lamu	Lamu									189741	-2.27169	40.90201
Land, Angola	Land, Angola									4452693	34.71406	-77.83165
Land, Argentinien	Land, Argentinien									6637369	-70	65
Land, Australien	Land, Australien									8162562	-34.53145	135.67546
Land, Belgien	Land, Belgien									6630103	-67.5	53
Land, Benin	Land, Benin									2946478	51.6	7.76667
Land, China	Land, China									7609695	18.04167	-63.06667
Land, Indien	Land, Indien									7668205	50.1028	-5.67056
Land, Iran	Land, Iran									6743580	37.9368	48.8486
Land, Namibia	Land, Namibia									3357149	-26	17
Land, Portugal	Land, Portugal									7303434	37051	-7.74269
	Land, Rhodesien											
Land, Simbabwe (Zimbabwe)	Land, Simbabwe (Zimbabwe)									892189	-18.73333	32.4
	Land, Sudan (Oberer Nil)											
Land, Südafrika	Land, Südafrika									3364520	-28.5	17
	Land, Tansania											
	Land, Uganda											
Land, Vietnam	Land, Vietnam									1583589	11.65	109.18333
Land/Region, Südafrika	Land/Region, Südafrika									3364520	-28.5	17
	Land/Region, Tansania											
	Landschaft, Adamaua											
Landshut (Bayern)	Landshut (Bayern)									2881485	48.52961	12.16179
Langensalza	Langensalza									2953413	51.10771	10646
Langenschwalbach	Langenschwalbach									2953348	50.14196	8.06964
Langkat (Sumatra)	Langkat (Sumatra)									1214728	3.68528	98.21972
Laos	Laos									1655842	18	105
Lassan (Vorpommern)	Lassan (Vorpommern)									2880375	53.94835	13.84974
Lauban	Lauban									12759248	28.2743	82.72305
Lauchhammer	Lauchhammer									6550628	51.5	13.7667
Lauchheim (Württemberg)	Lauchheim (Württemberg)									2880215	48.87135	10.24222
Lausanne (Schweiz)	Lausanne (Schweiz)									2659994	46516	6.63282
Leau	Leau									6051204	47.98344	-74.98249
	Lechenich (Rheinland)											
	Leeds (Großbritannien)											
Lehe	Lehe									2454129	15.12939	-10.88246
	Lehe bei Bremerhaven											
Leiden	Leiden									2751773	52.15833	4.49306
Leiden (Leyden)	Leiden (Leyden)									2751773	52.15833	4.49306
Leiden (Leyden) (Niederlande)	Leiden (Leyden) (Niederlande)	Leiden (Niederlande)								2751773	52.15833	4.49306
Leipzig	Leipzig									2879139	51.33962	12.37129
Lengenfeld (Vogtland)	Lengenfeld (Vogtland)									6550763	50.5742	12.3897
Lenggries	Lenggries									2878824	47.68333	11.56667
	Lenthe (bei Hannover)											
Liberia	Liberia									2275384	6.5	-9.5
	Libysche Wüste											
Lichtenberg	Lichtenberg									2878102	52.51395	13.49975
	Lichtenthal (Ludwigsbad)											
Lichterfelde	Lichterfelde									2878018	52.4333	13.30762
Liegnitz	Liegnitz									3093692	51.21006	16.1619
Liegnitz (Schlesien)	Liegnitz (Schlesien)									3093692	51.21006	16.1619
Lima	Lima									3936456	-12.04318	-77.02824
Lima (Peru)	Lima (Peru)									3936456	-12.04318	-77.02824
Limburg (Lahn)	Limburg (Lahn)									2877648	50.3836	8.0503
Limburg an der Lahn (Hessen)	Limburg an der Lahn (Hessen)									2877648	50.3836	8.0503
	Limburg an der Lahr											
	Limburg/Lemberg											
	Lindenhof bei Eutin											
	Lindenthal/Cottbus											
Lindi	Lindi									155946	-9.5	38.5
	Lippstadt (Lkr. Soest / Nordrhein-Westfalen)											
Liverpool	Liverpool									2644210	53.41058	-2.97794
	Liverpool (Großbritannien)											
	Lixingen (Lothringen)											
Loanda (Luanda)	Loanda (Luanda)									2240449	-8.83682	13.23432
Loango	Loango									211677	-6.73926	23.82889
	Loben (Oberschlesien)											
Lome	Lome									2365267	6.12874	1.22154
Lome (Togo)	Lome (Togo)	Lome (Togo), Vorgang								2365267	6.12874	1.22154
London	London									2643743	51.50853	-0.12574
	London (Großbritannien)											
Longji	Longji									8418769	29.46196	105.40473
Los Angeles (Californien)	Los Angeles (Californien)									5368361	34.05223	-118.24368
Los Angeles (Chile)	Los Angeles (Chile)									3882428	-37.46973	-72.35366
	Lubochin (bei Dritschmin/ West Preußen)	Lubochin bei Dritchmin (West-Preußen)										
Ludwigsburg	Ludwigsburg									2875392	48.89731	9.19161
Luf	Luf									11961689	-1.51434	145.07839
Lugano	Lugano									3422064	72.8	-27.46667
Luhonono	Luhonono									876872	-17.55	24.83333
Lunda (Kongo)	Lunda (Kongo)									7893863	-8.39158	17.80966
Lupembe	Lupembe									922638	-11.49866	27.63478
Luxemburg	Luxemburg									2960313	49.75	6.16667
Luzern	Luzern									2659811	47.05048	8.30635
Lyon	Lyon									2996944	45.74846	4.84671
Lübeck	Lübeck									2875601	53.86893	10.68729
	Lückendorf bei Oybin, Kgr. Sachsen											
Lüneburg	Lüneburg									2875115	53.2509	10.41409
Lünen	Lünen									2875107	51.61634	7.52872
	Mac Donnel Gebirge (Zentral-Australien)											
Macalle (Tigrai)	Macalle (Tigrai)									331180	13.49667	39.47528
Macassar (Makasar)	Macassar (Makasar)									1622786	-5.14861	119.43194
Madagaskar	Madagaskar									1062947	-20	47
Madras (Indien)	Madras (Indien)	Madras (Chennai)								1264527	13.08784	80.27847
Madrid (Spanien)	Madrid (Spanien)									3117735	40.4165	-3.70256
Mafia	Mafia									155410	-7.85378	39.78041
Magdeburg	Magdeburg									2874545	52.12773	11.62916
Magdeburg-Buckau	Magdeburg-Buckau									2942165	52.10677	11.64044
Mailand (Italien)	Mailand (Italien)									3173435	45.46427	9.18951
	Main-Long-gylt (Siam, Shan-Staaten)											
Mainz	Mainz									2874225	49.98419	8.2791
Malakka (Malâka)	Malakka (Malâka)									1734759	2196	102.2405
Malang (Ost-Java)	Malang (Ost-Java)									1636722	-7.9797	112.6304
	Malang (bei Soerabaya)											
Malaysia	Malaysia									1733045	2.5	112.5
Malden (Massachusetts)	Malden (Massachusetts)									4942939	42.4251	-71.06616
	Malschoewen (Ostpreußen)											
Malschöwen	Malschöwen									765293	53.58102	20.71657
Manaus (Brasilien)	Manaus (Brasilien)									3663517	-3.10194	-60025
Manchester	Manchester									5089178	42.99564	-71.45479
Manila	Manila									1701668	14.6042	120.9822
Manila (Luzon)	Manila (Luzon)									8714204	14.8199	120.90293
Manila (Philippinen)	Manila (Philippinen)									1701668	14.6042	120.9822
	Maningaza-Fluss (bei Beravi, West-Madagaskar)											
Mannheim	Mannheim									2873891	49.4891	8.46694
Maracaibo	Maracaibo									3633009	10.64232	-71.61089
Maranguape	Maranguape									3395449	-3.89083	-38.68556
Marburg	Marburg									2873759	50.80904	8.77069
Marburg a./Lahn	Marburg a./Lahn									2873759	50.80904	8.77069
	Marburg a./Lahr											
	Marcaibo											
Margelan	Margelan									1514019	40.38421	71.78432
Marianen	Marianen									4041422	15214	145.7595
Mariannhill (Südafrika)	Mariannhill (Südafrika)									978869	-29.84573	30.8258
	Mariatrost bei Graz											
Marienfelde	Marienfelde									2873589	52.41868	13.36723
Marienwerder	Marienwerder									2873464	52.84208	13.59927
Markkleeberg	Markkleeberg									2873352	51.2755	12.36906
Marokko	Marokko									2542007	28.5	-10
	Marquesas Inseln	Marquesas-Inseln										
Marshall-Inseln	Marshall-Inseln									2080186	7113	171252
	Marshall-Inseln, Fidji-Inseln											
	Marshall-Inseln, Gilbert-Inseln											
	Marton, Yorkshire (Großbritannien)											
	Maschona-Land	Maschonaland										
Mashona	Mashona									886839	-18.06426	30.87473
Maskat	Maskat									287286	23.58413	58.40778
Matto Grosso (Brasilien)	Matto Grosso (Brasilien)									3457418	-15.5	-56
	Matty, St. Matthias, New Irland											
Matupi	Matupi									1328633	21.60157	93.44227
Maxsain	Maxsain									6554154	50.55	7.78333
	Mbeyahof											
Medan Deli (Sumatra)	Medan Deli (Sumatra)									1214800	3879	98633
Meissen	Meissen									2872155	51.16158	13.4737
	Melanesien											
	Melange (Portugiesisch Westafrika)											
Melbourne	Melbourne									2158177	-37814	144.96332
Melbourne (Australien)	Melbourne (Australien)									2158177	-37814	144.96332
	Menado (Celebres/Sulawesi)											
Mengo	Mengo									229222	0.5	32.25
	Menton-Garavan (Riviera)											
Meran	Meran									3173577	46.66817	11.15953
	Meran (Obermais)											
	Merantee (Holländisch Neu-Guinea)											
	Mesoamerika											
	Mesopotamien											
	Metschkau (Mieczków) (Schlesien)											
	Mettnau bei Radolfzell, Wohnhaft seit 1901											
Metz	Metz									2994160	49.11911	6.17269
Mexiko City	Mexiko City	Mexiko	Mexiko-Stadt							3530597	19.42847	-99.12766
Midan	Midan									282501	31.9	35.45
Mikindani	Mikindani									877933	-10.28054	40.11465
	Millstadt (Kärnten)											
Milwaukee (Wisconsin)	Milwaukee (Wisconin)	Milwaukee (Wisconsin)								5263045	43.0389	-87.90647
	Mimoso (oder Cuiabá)											
Minden (Westfalen)	Minden (Westfalen)									2871039	52.28953	8.91455
	Missionsschule Niesky											
	Missionsstation, Chishawasha											
	Missionsstation, Coranderrk											
	Missionsstation, Rântschi/Ranchi (Tschota Nagpur)											
Mitla (Mexiko)	Mitla (Mexiko)									3518117	16.92283	-96.3599
	Mittel-Kamerun, Süd-Kamerun											
Moabit	Moabit									2870310	52.52635	13.33903
	Mohasi-See (Ruanda)											
Mombasa	Mombasa									186301	-4.05466	39.66359
	Mondevideo											
Mongolei	Mongolei									2029969	46	105
Montego-Bay (Jamaica)	Montego-Bay (Jamaica)									3489460	18.47116	-77.91883
Montevideo	Montevideo	Montevideo (Uruguay)								3441575	-34.90328	-56.18816
Morelia (Mexiko)	Morelia (Mexiko)									3995402	19.70078	-101.18443
Moskau	Moskau	Moskau (Russland)	Moskau (Sowjetunion, UdSSR)							524901	55.75222	37.61556
Mozambique	Mozambique									1036973	-18.25	35
	Mubi (Kamerun)											
Mukden (China)	Mukden (China)									2034937	41.79222	123.43278
	Muôa											
Myanmar (Birma)	Myanmar (Birma)	Myanmar (Birma/Burma)								1327865	21	96
Märkisch Friedland	Märkisch Friedland									3091700	53.34071	16.08793
Mérida (Yucatán, Mexiko)	Mérida (Yucatán, Mexiko)									3523349	20967	-89.62318
Mödling (bei Wien / Österreich)	Mödling (bei Wien / Österreich)									2781463	48.13333	16.15
	Möhringen a.d. Filder											
	Mönchengladbach (Rheinland)											
	Mörz bei Belzig											
Mülheim a.d. Ruhr	Mühlheim a./Rh.	Mülheim a.d. Ruhr	Mülheim/ Ruhr							2867838	51.43218	6.87967
München	München									2867714	48.13743	11.57549
Münster	Münster									2867543	51.96236	7.62571
	Münster (Westphalen)											
Nagasaki	Nagasaki									1856177	32.75	129.88333
Nagasaki (Japan)	Nagasaki (Japan)									1856177	32.75	129.88333
Nagasaki-shi 長崎市	Nagasaki-shi 長崎市									1856177	32.75	129.88333
Nagoya	Nagoya									1856057	35.18147	136.90641
Nairobi	Nairobi									184745	-1.28333	36.81667
	Namatanai (Ostküste Neuirland)											
	Namatani (Neu-Mecklenburg, heute New Ireland)											
Namibia	Namibia	Namibia (Damaraland)								3355338	-22	17
	Narubis (Deutsch-Südwest Afrika)											
	Narutaki (Nagasaki)											
Natal (Südafrika)	Natal (Südafrika)									1007311	-29.8579	31.0292
	Nauen (bei Berlin)											
	Nauheim bei Großgerau											
Naumburg (Saale)	Naumburg (Saale)	Naumburg a./S.	Naumburg							2866906	51.14987	11.80979
Nauru	Nauru	Nauru, Marshall-Inseln, Karolinen-Inseln								2110425	-517	166933
Navarro	Navarro									4683462	32.09543	-96.46887
Nazza	Nazza									2986569	42.05634	9.29729
Neapel	Neapel	Neapel (Kampanien / Italien)								3172394	40.85216	14.26811
	Neisse (Schlesien)											
Nepal	Nepal									1282988	28	84
Neu-Britannien	Neu-Britannien									2089703	-5.74307	150.77156
Neu-Guinea	Neu-Guinea									2089694	-3.16598	151.6935
	Neu-Hebriden											
Neu-Irland	Neu-Irland									2089694	-3.16598	151.6935
	Neu-Kaledonien											
Neu-Kamerun	Neu-Kamerun									5111163	42.19924	-77.40637
Neu-Mecklenburg	Neu-Mecklenburg									2864679	53.79342	13.7521
Neu-Pommern	Neu-Pommern									3100626	54.45388	17.48673
	Neu-Pommern, Salomon-Inseln, Samoa, Marshall-Inseln, Palau											
	Neu-Südwales (Australien)											
Neu-Ulm	Neu-Ulm									2863941	48.39279	10.01112
Neubabelsberg (Potsdam)	Neubabelsberg (Potsdam)									2953775	52.39322	13.0955
Neubrandenburg	Neubrandenburg									2866135	53.56414	13.27532
Neubrandenburg (Mecklenburg)	Neubrandenburg (Mecklenburg)	Neubrandenburg (Mecklenburg), https://de.wikipedia.org/wiki/Ernst_K%C3%BChnel								2866135	53.56414	13.27532
	Neubritannien											
Neubukow	Neubukow									2866087	54.03227	11.67331
Neuchâtel (Schweiz)	Neuchâtel (Schweiz)									2659496	46.99179	6931
	Neudamm (Frankfurt a./O.)											
	Neue Hebriden	Neue-Hebriden, Riff-Inseln, Santa Cruz										
Neuendettelsau (Bayern)	Neuendettelsau (Bayern)									2865798	49.28333	10.78333
	Neuendorf bei Lauenstein (Bezirk Köslin)											
Neuguinea	Neuguinea									2082514	-5	140
	Neuguinea, Neu-Mecklenburg											
	Neuhaldersleben											
	Neuhaus/a.d. Elbe (Grhzt. Mecklenburg-Schwerin)											
	Neuirland											
Neukaledonien	Neukaledonien									2139685	-21.5	165.5
Neukölln	Neukölln									2864695	52.47719	13.43126
	Neukölln (bei Berlin)											
	Neumecklenburg											
Neumünster (Schleswig)	Neumünster (Schleswig)									2864475	54.07399	9.98456
Neuruppin	Neuruppin									2864276	52.92815	12.80311
	Neusalz/Oder											
Neuseeland	Neuseeland									2186224	-42	174
	Neuss a./Rh											
	Neuss a./Rh.											
Neustrelitz	Neustrelitz									2864005	53.3613	13.07292
Neuwied	Neuwied									2863840	50.4336	7.47057
	New Mexico (Vereinigte Staaten USA)											
New Orleans	New Orleans									4335045	29.95465	-90.07507
	New York (Vereinigte Staaten (USA)	New York (Vereinigte Staaten, USA)										
Nicaragua	Nicaragua									3617476	13	-85
Niederlande	Niederlande									2750405	52.25	5.75
	Niederländisch Indien	Niederländisch-Indien										
	Niederländisch Süd-Neuguinea											
	Niederländisch-Guayana											
	Niederwalluf (Rheinland)											
Nienburg	Nienburg									2862620	52.6461	9.22086
	Nienburg a./N.											
Niesky	Niesky									2862460	51.29241	14.82107
Nigeria	Nigeria									2328926	10	8
	Nikolassee (bei Berlin)											
Nizza	Nizza									2990440	43.70313	7.26608
Nord-Afrika	Nord-Afrika									7729887	32.95337	9.97559
Nord-Argentinien	Nord-Argentinien									3171193	44.95909	7.19167
Nord-Australien	Nord-Australien									2185983	-39	176
Nord-Bali	Nord-Bali									8521737	5.89548	10.03395
Nord-Brasilien	Nord-Brasilien									3394023	-5795	-35.20944
	Nord-Britannien											
Nord-Chile	Nord-Chile									3180197	45.59638	12.32655
	Nord-Hebriden											
Nord-Indien	Nord-Indien									6010485	51.54667	-76.08083
Nord-Kamerun	Nord-Kamerun									2234974	5.9597	10.14597
	Nord-Neuirland											
Nord-Nigeria	Nord-Nigeria									2335953	9.92849	8.89212
Nord-Queensland	Nord-Queensland									2154857	-27.52791	153.46081
	Nord-Sibirien											
Nord-Sumatra	Nord-Sumatra									1214520	3.58333	98.66667
Nord-Transvaal (Südafrika)	Nord-Transvaal (Südafrika)									980595	-25.86522	25.64421
Nord-Venezuela	Nord-Venezuela									7910777	45.42863	12.35744
Nordafrika	Nordafrika									7729887	32.95337	9.97559
	Nordafrika (Algerien, Kabylei)											
	Nordafrika (wohl Marokko)											
	Nordafrika, Algerische Sahara											
	Nordafrika, Tunesien											
Nordamerika	Nordamerika									6255149	46.07323	-100.54688
	Nordamerika (Prärie)											
	Nordamerika, Prärie, Arizona											
Nordhausen	Nordhausen									2861982	51.5018	10.7957
Nordhausen (Thüringen)	Nordhausen (Thüringen)									2861982	51.5018	10.7957
	Nordost-Bolivien											
	Nordost-Peru											
	Nordwest-Argentinien											
	Nordwest-Australien											
	Nordwest-Kamerun											
	Nordwest-Kamerun und Mittleres Kamerun											
Nottingham	Nottingham									2641170	52.9536	-1.15047
	Nubien											
	Nusa (Nord-Neumecklenburg)											
Nyamba	Nyamba									1090262	-12.8061	45.10017
Nürnberg	Nürnberg									2861650	49.45421	11.07752
Oakland (Californien)	Oakland (Californien)									5378538	37.80437	-122.2708
Oakland (Kalifornien)	Oakland (Kalifornien)									5378538	37.80437	-122.2708
	Oakland (Vereinigte Staaten, USA)											
Oaxaca (Mexiko)	Oaxaca (Mexiko)									3522509	17	-96.5
Ober-Ägypten	Ober-Ägypten									10054391	-9.09613	26.73407
Oberdorf (Baden)	Oberdorf (Baden)									2861084	47.61707	9.57407
	Oberer Sambesi											
	Oberförsterei Panten bei Liegnitz (Schlesien)											
Oberkassel	Oberkassel									2860103	51.23011	6.74698
	Ockrilla bei Meißen											
	Oels (heute Oleśnica / Polen)											
Oelsnitz (Vogtland)	Oelsnitz (Vogtland)									2857919	50.4147	12.1695
Oernsköldsvik (Schweden)	Oernsköldsvik (Schweden)									6296805	63.40834	18.99004
Offenbach/Main	Offenbach/Main									2857807	50.10061	8.76647
Ohlendorf (Niedersachsen)	Ohlendorf (Niedersachsen)									2857674	53.34199	10.05036
Ohrdruf	Ohrdruf									2857592	50.82882	10.73407
Okahandja	Okahandja									3354898	-21.98141	16.9029
Oklahoma City	Oklahoma City									4544349	35.46756	-97.51643
Oku (Kamerun)	Oku (Kamerun)									2223196	6.18333	10.51667
	Old Calabar (Nigeria)											
Oldenburg	Oldenburg									2857458	53.14118	8.21467
Omaha	Omaha									5074472	41.25626	-95.94043
	Omaha (Vereinigte Staaten USA)											
Omaha Reservation (Nebraska)	Omaha Reservation (Nebraska)									5074514	42.09227	-96.53575
	Omegna (Provinz Novara, Norditalien)											
Oppeln	Oppeln									3090048	50.67211	17.92533
Oppeln (Oberschlesien)	Oppeln (Oberschlesien)									3080538	50.60503	18.48467
Oranienburg	Oranienburg									2857129	52.75577	13.24197
	Ort, Diwani											
	Ort, Fahrenbühl											
	Ort, Faradje											
	Ort, Groot Sangir											
	Ort, Mbweni											
	Ort, Port Natal											
	Ort, Tuonman											
Osaka	Osaka									1853909	34.69379	135.50107
Osaka (Japan)	Osaka (Japan)									1853909	34.69379	135.50107
	Oslebshausen (bei Bremen)											
Oslo	Oslo									3143244	59.91273	10.74609
Oslo (Norwegen)	Oslo (Norwegen)									3143244	59.91273	10.74609
	Osmanisches Reich											
Osnabrück	Osnabrück									2856883	52.27264	8.0498
	Ost-Bolivien											
	Ost-Ecuador											
Ost-Grönland	Ost-Grönland									1000098	-31.20415	27.45628
Ost-Java	Ost-Java									1625822	-7.24917	112.75083
	Ost-Labrador (Kanada)											
Ost-Peru	Ost-Peru									12435759	-9.53056	119.20556
	Ost-Turkistan											
Ostafrika	Ostafrika									7729889	-0.52734	36.51855
	Ostafrika (Pare-Gebirge)											
	Ostafrika (Swahiliküste)											
	Ostafrika, Makonde											
	Ostafrika, Massai											
	Ostafrika, Ruanda											
	Ostafrika, Wassiba											
Ostasien	Ostasien									7729894	32.24997	114.60938
	Ostbrasilien											
Osterinsel (Isla de Pascua / Rapa Nui)	Osterinsel (Isla de Pascua / Rapa Nui)									4030726	-27.11667	-109.36667
	Ostgrönland											
	Ostperu											
Ostpreußen	Ostpreußen									772636	54	21
	Ostturkestan											
Ouargla	Ouargla									2485794	30.68333	5.26667
Ovamboland	Ovamboland									3371194	-18	16
Oxford (England, UK)	Oxford (England, UK)									2640729	51.75222	-1.25596
Ozeanien	Ozeanien									6255151	-18.31281	138.51562
Padang	Padang									1633419	-0.94924	100.35427
Padang (Pâdang)	Padang (Pâdang)									1633419	-0.94924	100.35427
Padang (Sumatra)	Padang (Sumatra)									1633419	-0.94924	100.35427
Paderborn	Paderborn									2855745	51.71905	8.75439
	Pakhoi-Hoihow											
Pakistan	Pakistan									1168579	30	70
Palau	Palau									1559582	7503	134621
Panama	Panama									3703430	9	-80
Pangani	Pangani									11267973	-1.95432	40.52967
	Pangwe (Westafrika)											
Pankow (bei Berlin ?)	Pankow (bei Berlin ?)									2852217	52.53878	13.42443
	Papan-Yokohama											
Papeete (Tahiti)	Papeete (Tahiti)									4033936	-17.5347	-149.56843
	Papua-Neuguinea (Deutsch-Neuguinea)											
Para	Para									3405870	-1.45583	-48.50444
Para (Brasilien)	Para (Brasilien)									3405870	-1.45583	-48.50444
Paraguay	Paraguay									3437598	-23.33333	-58
Paris	Paris	Paris (Frankreich)	Paris, île de France (Frankreich)	ParisParis (Frankreich)						2988507	48.85341	2.3488
	Parnelmen (Ostpreußen)											
Pará	Pará									3405870	-1.45583	-48.50444
Passy (Paris)	Passy (Paris)									2988394	48.8637	2.2769
Patagonien	Patagonien									3841798	-44	-68
	Patagonien, Neuguinea, Fidji-Inseln, Santa Cruz, Melanesien											
Peking	Peking	Peking (Beijing)	Peking (Beijing) (China)	Peking (Beijing) / China	Peking (Beijing, China)	Peking (China)				1816670	39.9075	116.39723
Penang	Penang									1733047	5.37677	100.25848
	Pennsylvania (Nordost)											
Pernambuco (Brasilien)	Pernambuco (Brasilien)									3392268	-8.33333	-37.75
Persien	Persien									130758	32	53
Peru	Peru									3932488	-10	-75.25
	Peschaur											
	Peshawer (Indien)											
Pest (Budapest, Ungarn)	Pest (Budapest, Ungarn)									3054643	47.49835	19.04045
Petrosawodsk	Petrosawodsk									509820	61.78491	34.34691
	Petrowsk (Daghestan)											
	Pforta (Kreis Naumburg a.S.)											
Pforzheim	Pforzheim									2853969	48.88436	8.69892
Philadelphia	Philadelphia	Philadelphia (Pa.)	Philadelphia (Pennsylvania)		Philadelphia (Pennsylvania, Vereinigte Staaten USA)					4560349	39.95238	-75.16362
Philippinen	Philippinen	Phillipinen								1694008	13.40882	122.56155
	Phillipsthal (Hessen-Nassau)											
	Piasniki bei Lipine (Oberschlesien)											
Picardie (Frankreich)	Picardie (Frankreich)									2987375	49.63333	2.8
Pietermaritzburg	Pietermaritzburg	Pietermaritzburg (Natal, Südafrika)								965301	-29.61679	30.39278
Pietersburg	Pietersburg									965289	-23.90449	29.46885
	Pillau (Ostpreußen)											
	Piroc (Frankreich)											
Pisa	Pisa									3170647	43.70853	10.4036
	Plains (nördliche)											
Plauen	Plauen									2853292	50.4973	12.13782
Plötzensee	Plötzensee									2853124	52.54455	13.32933
	Pohnpei, 1908											
Pointe á Pitre	Pointe á Pitre									3578959	16273	-61.50507
	Polarstation Sagastyr											
Polynesien	Polynesien									7729901	-17.6859	-143.87695
Port Blair (Andamanen)	Port Blair (Andamanen)									1259385	11.66613	92.74635
Port Elizabeth	Port Elizabeth									964420	-33.96109	25.61494
	Port Louis auf Mauritius											
Port Velho (Rondônia)	Port Velho (Rondônia)									12967128	-8.74398	-63.91782
	Port of Spain auf Trinidad											
Portland (Oregon)	Portland (Oregon)									5746545	45.52345	-122.67621
Portugal	Portugal									2264397	39.6945	-8.13057
	Portugiesisch Ostafrika											
	Portugisisch-Guinea											
Posen	Posen									3088171	52.40692	16.92993
Posen (Poznań)	Posen (Poznań)									3088171	52.40692	16.92993
Potsdam	Potdam	Potsdam								2852458	52.39886	13.06566
Potsdam-Sanssouci	Potsdam-Sanssouci									6295638	52.40416	13.0385
Prag	Prag	Prag (Böhmen)								3067696	50.08804	14.42076
Prenzlau	Prenzlau									6550670	53.3022	13.8481
Pretoria	Pretoria									964137	-25.74486	28.18783
Preußen	Preußen									554234	54.70649	20.51095
	Prokuls (Memelland)											
Prosnes (Frankreich)	Prosnes (Frankreich)									6435953	49.19194	4.29222
	Protektorat, Britisch-Ostafrika											
	Provinz, British Columbia (Kanada/Canada)											
Provinz, Chiriqui (Panama)	Provinz, Chiriqui (Panama)									3711668	8.42729	-82.43085
	Provinz, Chôshû (長州)											
Provinz, Parana	Provinz, Parana									3430132	-29.14522	-59.47951
Provinz, Rio Negro	Provinz, Rio Negro									3701836	7.63478	-80.97325
	Provinz, Santa Catharina											
Provinz, Sao Paulo	Provinz, Sao Paulo									2240449	-8.83682	13.23432
	Provinz, Shandong	Provinz, Shandong / China										
	Provinz, Zhili (heute Hebei)											
	Provinzhaupstadt, Desterro											
Pueblo	Pueblo									5435464	38.25445	-104.60914
Puerto Cabello (Venezuela)	Puerto Cabello (Venezuela)									3629706	10.47306	-68.0125
	Puerto Istueha (Misiones, Argentinien)											
Purulia (Indien)	Purulia (Indien)									1259163	23.33062	86.36303
	Pölsdorf bei Eppendorf											
	Qatiktalik (Cape Fullerton, Kanada)											
Qingdao (Tsingtao)	Qingdao (Tsingtao)									1797929	36.06488	120.38042
Quebec City (Kanada)	Quebec City (Kanada)									6325494	46.81228	-71.21454
Quedlinburg	Quedlinburg									2851465	51.78843	11.15006
Queensland	Queensland									11523972	-16.56884	142.4846
Quito (Ecuador)	Quito (Ecuador)									3652462	-0.22985	-78.52495
Radebeul	Radebeul									2851077	51.10654	13.66047
	Radomitz (bei Posen)											
Rangoon (Burma)	Rangoon (British Birma)	Rangoon (Burma)	Rangoon/Rangun (Burma/Birma)		Rangun (Rangoon)					1298824	16.80528	96.15611
	Rauenheim (Kreis Großgerau, Großherzogtum Hessen)											
	Rawalpindi (Britisch-Indien)											
Reading (Pennsylvania)	Reading (Pennsylvania)									5207728	40.33565	-75.92687
	Recke (Kr. Tecklenburg)											
Regensburg	Regensburg									2849483	49.01513	12.10161
	Regierungsbezirk, Bertua											
	Regierungsbezirk, Ossidinge											
Region, Gran Chaco	Region, Gran Chaco									3444449	-23	-60
	Region, Indischer Archipel											
Region, Ostafrika	Region, Ostafrika									7729889	-0.52734	36.51855
Region, Phrygien	Region, Phrygien									8378490	38.42024	30.39093
Region, Südafrika	Region, Südafrika									7626902	-32.1721	25.65618
	Region, Südost-Kamerun											
Region, Tibet	Region, Tibet									1280737	29.65	91.1
	Region, Tsi-nan fu (Jinanfu) 濟南府											
	Region, Zentral-Australien											
Rehoboth (Namibia)	Rehoboth (Namibia)									3353540	-23317	17.09
	Reich des Muata-Jamvo											
Reichenau (Sachsen)	Reichenau (Sachsen)									7602603	50.80839	13.57757
Reinickendorf	Reinickendorf									2848756	52.56395	13.33552
	Remhagen											
Remiremont, (Vosges, Frankreich)	Remiremont, (Vosges, Frankreich)									2984050	48.01754	6.5882
Remscheid	Remscheid									2848273	51.17983	7.1925
Rendsburg (Schleswig-Holstein)	Rendsburg (Schleswig-Holstein)									2848245	54.30182	9.67175
Republik Südafrika	Republik Südafrika	Republik Südafrika (Land/Region)								953987	-29	24
Reudnitz (Leipzig)	Reudnitz (Leipzig)									11611309	51.33182	12.40258
Rheinland	Rheinland									2847618	49.66667	7.5
	Rheinregion											
	Rhodesia, Mashona-Land	Rhodesien										
Riberalta	Riberalta									3906466	-11.01026	-66.05257
Richmond	Richmond									5387428	37.93576	-122.34775
Ridgewood (New Jersey)	Ridgewood (New Jersey)									5103269	40.97926	-74.11653
Riga	Riga	Riga (russ Gov. Livland)								456172	56946	24.10589
Rio de Janeiro	Rio de Janeiro	Rio de Janeiro (Brasilien)								3451190	-22.90642	-43.18223
	Rio del Rey-Gebiet (Kamerun)											
Riobamba	Riobamba	Riobamba (Ecuador)								3652350	-1.66506	-78.65887
Rixdorf	Rixdorf	Rixdorf bei Berlin								2846304	54.20767	10.42291
Rom	Rom	Rom (Italien)								3169070	41.89193	12.51133
Rondebosch	Rondebosch	Rondebusch (vor Capetown)								7302802	-33.96333	18.47639
Roseires	Roseires									378459	11.8659	34.3869
Rosenberg o/S	Rosenberg o/S									6292163	47.31319	8.91206
Rostock	Rostock	Rostock (Mecklenburg)								2844588	54.0887	12.14049
Rotterdam	Rotterdam	Rotterdam (Niederlande)								2747891	51.9225	4.47917
Rouen (Frankreich)	Rouen (Frankreich)									2982652	49.44313	1.09932
Ruanda	Ruanda									49518	-2	30
Rudolstadt (Thüringen)	Rudolstadt (Thüringen)									2843355	50.72043	11.34046
Russland	Russland									2017370	60	100
Réunion	Réunion									935317	-21.1	55.6
Römhild	Römhild									2845304	50.39639	10.53889
	Rüngsdorf (bei Godesberg)											
	S. Ramon (Distr. Itaya, Ost-Peru)											
Saadani	Saadani									6941813	41.6	6.25
Saalburg (Bad Homburg)	Saalburg (Bad Homburg)									3208114	50.27146	8.56672
Saalfeld	Saalfeld									2842688	50.64826	11.36536
Saarbrücken	Saarbrücken									2842647	49.23262	7.00982
	Saarlouis (Rheinprovinz)											
Sagan	Sagan									2016360	53.09142	102.76763
Saigon	Saigon									1566083	10.82302	106.62965
	Saint Kitts (West Indies)											
	Saipan (Marianen-Inseln), 1899-1906											
Sakarre	Sakarre									150321	-4.98333	38.43333
Salem	Salem									5750162	44.9429	-123.0351
Salisbury (Harare, Zimbabwe)	Salisbury (Harare, Zimbabwe)									890299	-17.82772	31.05337
Salisbury (Südafrika)	Salisbury (Südafrika)									958156	-29.88585	31.04977
Salomon-Inseln	Salomon-Inseln	Salomonen								2103350	-8	159
Salta	Salta									3838233	-24.80645	-65.41999
Salzburg (Österreich)	Salzburg (Österreich)									2766824	47.79941	13.04399
Samarang	Samarang									1746884	5.58333	114.9
Samarkand	Samarkand									1216265	39.65456	66.96445
Sambesi	Sambesi									895953	-13.54323	23.10467
Samoa	Samoa									4034894	-13.8	-172.13333
San Agustin (Kolumbien)	San Agustin (Kolumbien)									3670266	1.92433	-76.41572
San Francisco	San Francisco	San Francisco (Kalifornien)	San Francisco (Vereinigte Staaten USA)							3600949	14.0818	-87.20681
San José	San José	San José (Costa Rica)	San José de Costa Rica							3621849	9.93388	-84.08489
San Pedro Sula	San Pedro Sula									3601782	15.50585	-88.02588
	San Pedro de Riobamba (Ecuador, Provinz Chimborazo)											
	San Ramon (Itaya Distrikt, Ost-Peru)											
San Salvador	San Salvador									3583361	13.68935	-89.18718
Sankt Gallen	Sankt Gallen									2658822	47.42391	9.37477
Sankt Petersburg	Sankt Petersburg	Sankt Petersburg (Russland)	Sankt Petersburg (Russland), 1897 - 1902	St. Petersburg						498817	59.93863	30.31413
Sansibar	Sansibar	Sansibar (Zanzibar)								148728	-6.25	39.41667
Santa Cruz de la Sierra (Bolivien)	Santa Cruz de la Sierra (Bolivien)									3904906	-17.78629	-63.18117
Santa Cruz del Eje	Santa Cruz del Eje									3836523	-30.79885	-65.19134
Santa Rosa (Californien)	Santa Rosa (Californien)									5393287	38.44047	-122.71443
Santiago de Chile	Santiago de Chile									3871336	-33.45694	-70.64827
Sao Paulo (Brasilien)	Sao Paulo (Brasilien)									3448439	-23.5475	-46.63611
Sao Paulo de Loanda (Angola)	Sao Paulo de Loanda (Angola)									2240449	-8.83682	13.23432
	Saparua und Harauka											
	Sarawak (brit. Kolonie, heute Teil Malaysias)											
	Sargstedt bei Halberstadt											
	Schigatini											
	Schimonoseki (Japan)											
	Schivelbein (Hinterpommern), heute Swidwin/Polen											
Schleswig	Schleswig									2838632	54.2	9.75
	Schleuringen (i. Thüringen)											
	Schloss Friedersdorf (Krs. Lauban in Schlesien)											
	Schloss Rohrbach bei Weistrach											
	Schloss Scharfeneck (Grafschaft Glatz / Schlesien)											
	Schloss Waltershausen bei Saal / a.d. Saale											
	Schlossgut Ast (Bayern)											
Schmalkalden	Schmalkalden									2838059	50.72136	10.44386
	Schmargendorf (bei Berlin)											
	Schmolz (b. Breslau)											
Schoeneberg (bei Berlin)	Schoeneberg (bei Berlin)									6944089	52.4849	13.3429
	Schotteck bei Bremen											
Schreiberhau (Schlesien)	Schreiberhau (Schlesien)									3083677	50.82567	15.52274
	Schridlau (Westpreußen)											
	Schuckmannsburg (Caprivi-Zipfel)											
Schweden	Schweden									2661886	62	15
	Schweisnitz											
Schweiz	Schweiz									2658434	47.00016	8.01427
Schwerin	Schwerin	Schwerin (bei)								2834282	53.62937	11.41316
	Schwiebus, Kr. Züllichau (Neumark)											
Schwina	Schwina									2930428	52.30176	12.77813
Schwäbisch Hall	Schwäbisch Hall									2835481	49.11127	9.73908
Schwäbisch-Gmünd	Schwäbisch-Gmünd									2835482	48.79947	9.79809
Schönau (Sachsen)	Schönau (Sachsen)									2837041	51.06402	14.88402
Schönberg (Westmecklenburg)	Schönberg (Westmecklenburg)									2836944	53.84922	10.93123
Schöneberg (bei Berlin)	Schöneberg (bei Berlin)									6944089	52.4849	13.3429
Schönholz	Schönholz									2836553	52.57138	13.38137
	Schöningen bei Braunschweig											
	Schönshausen (Altmark)											
Scranton (Pennsylvania)	Scranton (Pennsylvania)									5211303	41.40916	-75.6649
Seattle (Washington)	Seattle (Washington)									5809844	47.60621	-122.33207
	Seckenheim bei Mannheim											
	Semarang (Samerang)											
	Sendshirli (Sendschirli)											
Seoul (Südkorea)	Seoul (Südkorea)									1835848	37566	126.9784
Sepik	Sepik	Sepik (Neuguinea)								2097846	-4	143.75
Shanghai	Shanghai	Shanghai (China)								1796236	31.22222	121.45806
Siam	Siam	Siam (Thailand)								1818185	10	102
Sibirien	Sibirien									2016590	60	100
	Sibirien (Amur-Gebiet)											
	Sibirien (Grenzregion zu China)											
Siegen	Siegen									2832495	50.87481	8.02431
Sielbeck	Sielbeck									2832396	54.18164	10.62345
Sierra Leone	Sierra Leone									2403846	8.5	-11.5
	Sigrampur											
Sikkim	Sikkim									1256312	27.75	88.5
Simbabwe	Simbabwe									878675	-19	29.75
Singapore	Singapore	Singapur	Singapur (Singapore)	Singapure						1880252	1.28967	103.85007
Sioux	Sioux									5231851	43.54997	-96.70033
Smith Sound (Kanada)	Smith Sound (Kanada)									6150199	48.16659	-53.66479
Smyrna (Izmir)	Smyrna (Izmir)									311046	38.41273	27.13838
Soerabaja (Soerabaya)	Soerabaja (Soerabaya)	Soerabaja/Malang (Java, Indonesien)	Soerabaya (Surabaya)							1625822	-7.24917	112.75083
Soest	Soest									2747034	52.17333	5.29167
Sofia	Sofia									727011	42.69751	23.32415
	Sommerstedt											
Sonora (Mexiko)	Sonora (Mexiko)									3982846	29.66667	-110.5
	Sooß bei Baden (Niederösterreich)											
Sosnowiec	Sosnowiec									3085128	50.28682	19.10385
Southampton	Southampton									2637487	50.90395	-1.40428
Spandau	Spandau									7290252	52.5511	13.19921
Springe	Springe									2830035	52.20845	9.55416
	Springfield (Ohio, Vereinigte Staaten (USA))											
Sprottau	Sprottau									3083631	51563	15.53504
	Srassburg											
Sri Lanka (Ceylon)	Sri Lanka (Ceylon)									1227604	7.60632	80.71648
	Srindagar (Kashmir)											
St. Gallen (Schweiz)	St. Gallen (Schweiz)									2658822	47.42391	9.37477
	St. Joseph de Nolala											
St. Petersburg (Florida)	St. Petersburg (Florida)									12213342	28.12342	-82.52853
St. Thomas	St. Thomas									4795467	18.3419	-64.9307
Sta. Cruz de Tenerife	Sta. Cruz de Tenerife									2511174	28.46824	-16.25462
	Stabelwitz (bei Breslau)											
Stade	Stade									2829901	53.59337	9.47629
Stadt, Bad Muskau	Stadt, Bad Muskau									2953397	51.55051	14.7124
Stadt, Berlin	Stadt, Berlin									2950159	52.52437	13.41053
Stadt, Jauernig	Stadt, Jauernig									3070818	50.4	17.01667
	Stadt, Katharein											
	Stadt, Kisaki											
	Stadt, Kobe											
	Stadt, Kumamoto											
	Stadt, Medan											
	Stadt, Nara											
	Stadt, Piracicaba											
	Stadt, Potosi in Bolivien (Anden)											
Stadt, Potsdam	Stadt, Potsdam									2852458	52.39886	13.06566
	Stadt, Qingdao 青岛, Qīngdǎo (Tsingtao)											
Stadt, St. Louis	Stadt, St. Louis									6957319	47.57564	7.57329
	Stadt, Stettin, Zuordnung unsicher											
	Stadt, Strasbourg, Frankreich											
	Stadt, Tokio											
	Stadt, Urag (Ulaanbaatar)											
	Stadt, Wellington											
	Stadtteil, Altona											
	Stadtteil, Bergedorf											
	Stadtteil, Charlottenburg											
	Stadtteil, Dahlem											
	Stadtteil, Ealing											
	Stadtteil, Friedenau											
	Stadtteil, Frohnau											
	Stadtteil, Geestemünde											
	Stadtteil, Grunewald											
	Stadtteil, Halensee											
	Stadtteil, Lankwitz											
	Stadtteil, Lichtenrade											
	Stadtteil, Lichterfelde											
	Stadtteil, Lichterfelde-West											
	Stadtteil, Marienfelde											
	Stadtteil, Schmagendorf											
	Stadtteil, South Kensington											
	Stadtteil, St. Pauli											
	Stadtteil, Weißensee											
	Stadtteil, Wilmersdorf											
	Station (Forschung), Bismarckburg											
	Station (Forschung), Jaunde											
	Station (Polizei/Militär), Bukoma											
	Station (Polizei/Militär), Deutsch-Binder											
	Station (Polizei/Militär), Ebolova											
	Station (Polizei/Militär), Johann-Albrechts-Höhe											
	Station (Polizei/Militär), Kete-Hedwigswart											
	Station (Polizei/Militär), Kete-Kratschi											
	Station (Polizei/Militär), Kilimatinde											
	Station (Polizei/Militär), Lokodé											
	Station (Polizei/Militär), Misahöhe											
	Station (Polizei/Militär), Muansa											
	Station (Polizei/Militär), Ujiji (Udjidji)											
	Station (Polizei/Militär), Usumbura											
	Stawropol (Kaukasus)											
Steglitz	Steglitz	Steglitz (bei Berlin)								2829109	52.45606	13332
	Steinau/ Od.											
	Stephansort (Papua-Neuguinea / Kaiser-Wilhelms-Land)											
Stettin	Stettin	Stettin (heute Szczecin, Polen)								3083829	53.42894	14.55302
Steyl	Steyl	Steyl (Niederlande)								2746751	51.33217	6.11942
Stockach (Baden)	Stockach (Baden)									2826909	47.85105	9.0091
Stockholm	Stockholm	Stockholm (Schweden)								2673730	59.32938	18.06871
	Stone Town (Sansibar)											
Storkow (Mark)	Storkow (Mark)									2826403	52.25662	13.93337
Stralsund	Stralsund									2826287	54.30911	13.0818
Straubing (bei)	Straubing (bei)									3206682	48.76637	12.23096
Straßburg	Straßburg	Straßburg i. E.	Straßburg, Elsaß	Straßburg/Elsass	Straßburg/Elsaß					2973783	48.58392	7.74553
	Stromberg im Thale (Rheinland)											
Strümpfelbrunn (Odenwald)	Strümpfelbrunn (Odenwald)									2825629	49.46425	9.07887
Stuttgart	Stuttgart	Stuttgart, Königliches Naturalienkabinet								2825297	48.78232	9.17702
	Suaheli											
Sudan	Sudan									366755	16	30
	Sudan, Kamerun, Loango											
Sultanabad	Sultanabad									143127	34.09493	49.69809
Sulu-Archipel (Philippinen)	Sulu-Archipel (Philippinen)									1685367	6	121
Sumatra	Sumatra									1626198	0	102
Sumatra (Batak)	Sumatra (Batak)									6716409	3.0971	99.0513
Sumatra (Indonesien)	Sumatra (Indonesien)									1626198	0	102
	Sumatra, Java											
Sunda-Inseln	Sunda-Inseln									1643789	0	110
Surinam	Surinam	Suriname								3382998	4	-56
Sutherlands	Sutherlands									2060794	-34.15445	139.22232
Swahili	Swahili									179705	-0.05	34.75
	Swat (Panjâb)	Swat-Gebiet (Nordwest-Indien)										
Swinemünde	Swinemünde									3083955	53.91053	14.24712
Sydney	Sydney	Sydney (Australien)								2147714	-33.86785	151.20732
Syrien	Syrien									163843	35	38
	São Luíz de Cáceres (Matto Grosso, Brasilien)											
	Süd- Ostasien											
	Süd- und Südostasien											
Süd-Angola	Süd-Angola									2049524	41.01264	128.86188
	Süd-Brasilien											
Süd-Grönland	Süd-Grönland									5228211	43.6302	-97.1885
Süd-Indien	Süd-Indien									5228302	44.54778	-99.00494
Süd-Kamerun	Süd-Kamerun									4573237	33.55765	-80.71453
Süd-Peru	Süd-Peru									4590044	33.42045	-79.98674
Südafrika	Südafrika									953987	-29	24
	Südafrika (Kubub)											
	Südafrika (Namaland)											
Südafrika (Natal)	Südafrika (Natal)									1007311	-29.8579	31.0292
	Südafrika (New Rhodesia)											
	Südafrika (Victoria-Falls)											
	Südafrikanische Republik (Transvaal)											
Südamerika	Südamerika									6255150	-14.60485	-57.65625
	Südbrasilien											
	Südende (bei Berlin)											
	Südkamerun											
	Südost-Ecuador											
	Südost-Kamerun											
	Südost-Venezuela											
	Südrussland											
Südsee	Südsee									13383448	53.82205	8.87638
	Südwestafrika											
Tahiti	Tahiti									4033649	-17.65601	-149.41916
Taiwan (Formosa)	Taiwan (Formosa)									1668284	24	121
Takaoka (Japan)	Takaoka (Japan)									1851032	36.75	137.01667
	Tami-Insel											
	Tananarivo (Madagaskar)											
Tanga	Tanga									4032283	-20	-175
Tanger (Marokko)	Tanger (Marokko)									2530335	35.76727	-5.79975
Tansania	Tansania									149590	-6	35
	Tapiau (Ostpreußen)											
	Taquara de mundo novo (Rio Grande do Sul)											
Tarija (Bolivien)	Tarija (Bolivien)									3903320	-21.53549	-64.72956
Tarnopol/Ternopol (Ukraine)	Tarnopol/Ternopol (Ukraine)									691650	49.55404	25.59067
Tarnowitz	Tarnowitz									3083440	50.44548	18.86147
Taschkent	Taschkent									1512569	41.26465	69.21627
Tasmanien (Australien)	Tasmanien (Australien)									2163355	-42.87936	147.32941
Teheran	Teheran									112931	35.69439	51.42151
Tehuantepec (Mexiko)	Tehuantepec (Mexiko)									3516843	16.32463	-95.24104
Telok-Betong	Telok-Betong									1779105	2316	104.0959
Tempelhof (bei Berlin)	Tempelhof (bei Berlin)									6944089	52.4849	13.3429
Teneriffa	Teneriffa									2511174	28.46824	-16.25462
	Tentsin (China)											
Teotihuacan (Mexiko)	Teotihuacan (Mexiko)	Teotihuacán (Mexiko)								3515936	19.69315	-98.84286
Teplitz	Teplitz									3064288	50.6404	13.82451
Tervuren (Belgien)	Tervuren (Belgien)									2785622	50.82372	4.51418
Tete	Tete									1026010	-15.5	33
	Tetschen (Österreich)											
	Texas (Vereinigte Staaten USA)											
Thailand	Thailand									1605651	15.5	101
Tharandt	Tharandt	Tharandt (Sachsen)								2822939	50.98525	13.58035
	Thonghat (Tongkah, Tongkat) (Siam)											
Thorn	Thorn									2746342	51.16167	5.84167
	Tianjin und Beijing (Peking) (China)											
	Tianjin/und oder Shanghai*											
Tibet	Tibet									1280737	29.65	91.1
Tientsin (China)	Tientsin (China)									1792947	39.14222	117.17667
Tilcara (Argentinien)	Tilcara (Argentinien)									3834402	-23.5	-65.33333
Tilsit	Tilsit									490068	55.08392	21.87851
Timor	Timor									1966436	-8.83333	125.75
	Tinwalde, Kr. Löbau (Westpreußen)											
Togo	Togo	Togo (Hinterland)								2363686	8.66667	1.08333
Tokai (Japan)	Tokai (Japan)									1850221	35	137.5
Tokio	Tokio	Tokio (Tôkyô) (Japan)	Tokyo							1850147	35.6895	139.69171
Tonga	Tonga									4032283	-20	-175
	Tongwe Mseguha											
Tonkin (Vietnam)	Tonkin (Vietnam)									1591445	22	105
Torgau	Torgau									2821807	51.56016	12.99617
Tosari (Java)	Tosari (Java)									1623321	-7.8819	112.9016
Transvaal	Transvaal	Transvaal (Südafrika)	Transvaal-Middelburg (Südafrika)							971534	-25.47512	30.96935
	Trebbin (Prov. Brandenburg)											
Treptow	Treptow									2821292	52.48863	13.4586
Treuen (Mecklenburg-Vorpommern)	Treuen (Mecklenburg-Vorpommern)									2821250	54.02088	13.17329
	Triebes bei Gera (Thüringen)											
Triest	Triest	Triest (Trieste)								3165185	45.64953	13.77678
Tring (England ?)	Tring (England ?)									2635459	51.79471	-0.65824
Tripolis	Tripolis									2210247	32.88743	13.18733
	Troizkosafsk (Troitzkosawsk/Sibirien)											
Tromsø	Tromsø									3133895	69.6489	18.95508
Trondheim (Norwegen)	Trondheim (Norwegen)									3133880	63.43049	10.39506
Truck	Truck									11127481	29.35	40.26
Trujillo (Peru)	Trujillo (Peru)									3691175	-8.11599	-79.02998
Tschad (Chad)	Tschad (Chad)									2434508	15	19
	Tschadseegebiet											
	Tscheidt (Landkreis Ratibor / Oberschlesien)											
	Tsi-nanfu (China)	Tsinanfu (China)										
Tsingtau (Qingdao)	Tsingtau (Qingdao)									1797929	36.06488	120.38042
Tuchel	Tuchel									327302	16.06022	37.96715
Tucson (Arizona)	Tucson (Arizona)									5318313	32.22174	-110.92648
Tucumán (Argentinien)	Tucumán (Argentinien)									3836873	-26.81601	-65.21051
Tumaco	Tumaco									3666640	1.79112	-78.79275
Tunis	Tunis									2464461	34	9
Turkmenistan	Turkmenistan									1218197	39.75	59.66667
Tübingen	Tübingen									2820860	48.52266	9.05222
Tübingen-Bebenhausen	Tübingen-Bebenhausen									2951811	48.55923	9.06218
Türkei	Türkei									298795	39	35
Təbriz (Täbriz)	Təbriz (Täbriz)	Təbriz (Täbriz) (Persien)								113646	38.08	46.2919
Uelzen	Uelzen									6557455	52.96753	10.56153
Uganda	Uganda									226074	1.25	32.5
	Uhehe											
	Ukunga, Katanga											
Ulm	Ulm									2820256	48.39841	9.99155
Umtali	Umtali	Umtali (Rhodesien)								879647	-19.28333	32.75
	Upapua											
Upsala (Schweden)	Upsala (Schweden)									2666199	59.85882	17.63889
	Urioste (Spanien)											
Uruguay	Uruguay									3439705	-33	-56
	Urumiah	Urumiah (Persien)										
Usambara	Usambara	Usambara (Ostafrika)								149148	-4.75	38.5
Utrecht (Niederlande)	Utrecht (Niederlande)									2745912	52.09083	5.12222
	Valle de Chevreuse											
Valparaiso	Valparaiso	Valparaiso (Chile)								3868626	-33036	-71.62963
Vancouver (British Colombia)	Vancouver (British Colombia)									6173331	49.24966	-123.11934
Vannes (Morbihan)	Vannes (Morbihan)									2970777	47.65688	-2.76205
	Varel (Oldenburg)											
Vaucresson (Frankreich)	Vaucresson (Frankreich)									2970540	48.84078	2.15652
Vegesack	Vegesack	Vegesack (bei Bremen)								2817783	53.17923	8.62228
Venezuela	Venezuela									3625428	8	-66
Veracruz	Veracruz	Veracruz (Mexiko)								3514780	19.33333	-96.66667
Vereinigte Staaten (USA)	Vereinigte Staaten (USA)									6252001	39.76	-98.5
	Verneuil l´Etange											
	Verwaltungsbezirk, Moschi											
Vevey (Schweiz)	Vevey (Schweiz)									2658145	46.46299	6.84345
Vicoforte	Vicoforte									3164405	44.35	7.9
	Victoria (Austalien)											
Victoria (Kamerun)	Victoria (Kamerun)									2229411	4.02356	9.20607
Victoriasee (Tanzania)	Victoriasee (Tanzania)	Victoriasee, Ukerewe (Tanzania)								148996	-1	33
Vigan (Philippinen)	Vigan (Philippinen)									1679980	17.57472	120.38694
Vista Alegre (Brasilien)	Vista Alegre (Brasilien)									7538297	-22.82888	-43.31605
Voerde (Westfalen)	Voerde (Westfalen)									2817065	51.59703	6.6863
	Vorder-Indien	Vorderindien										
	Vuatom, Neu-Pommern											
Vöslau (Niederösterreich)	Vöslau (Niederösterreich)									2782043	47.96533	16.21359
	Wahrenbrück/Liebenwerda (Sachsen)											
Waldhausen	Waldhausen									2762012	48.27377	14.9475
	Waldheim bei Finkenkrug											
Walfisch Bay	Walfisch Bay									3359638	-22.9575	14.50528
Waltersdorf	Waltersdorf									6550421	50.8333	11.75
	Wansee											
Waren (Mecklenburg)	Waren (Mecklenburg)									2814131	53.5204	12.67985
Warmbrunn	Warmbrunn									3101367	50.86545	15.68367
Warschau (Polen)	Warschau (Polen)									756135	52.22977	21.01178
	Washington (Vereinigte Staaten, USA)	Washington D.C. (Vereinigte Staaten, USA)										
Wasiba	Wasiba									2083726	-5.13434	142.7474
	Wassandaui (Tanzania)											
	Watindiga											
Weidasville (Pennsylvania)	Weidasville (Pennsylvania)									5218367	40.63843	-75.64547
	Weilheim an der Teck											
	Weimar	Weimar in Thüringen										
	Weißenbach/b. Liezen (Steiermark)											
	Weißenfels											
	Weißer Hirsch (Dresden)	Weißer Hirsch (bei Dresden)										
	Wenden (Livland)											
	Wendisch-Tychow	Wendisch-Tychow (Pommern)										
	Werder (bei Preschen)											
	Wernigerode											
	Wesel											
	West-Brasilien											
	West-Ecuador											
	West-Grönland (nördlich)											
	West-Sumatra											
	West-Usambara											
	Westafrika	Westafrika?										
	Westafrika (Frz. Zentralafrika)											
	Westafrika (Loango-Gebiet)											
	Westafrika (Tschadseeländer)											
	Westafrika, Angola											
	Westafrika, Ashanti											
	Westafrika, Bamum											
	Westafrika, Benin											
	Westafrika, Dahome											
	Westafrika, Elfenbeinküste											
	Westafrika, Französisch-Kongo, Kongo-Staat											
	Westafrika, Kamerun											
	Westafrika, Kamerun, Kongo											
	Westafrika, Liberia, Cap Palmas											
	Westafrika, Loango											
	Westafrika, Mittlerer Sudan											
	Westafrika, Tikar											
	Westafrika, Uelle-Gebiet											
	Westbrasilien											
	Westend											
	Westerville (New York)											
	Westturkestan											
	Wien	Wien (Kaisertum Österreich)	Wien (Österreich)									
	Wiesbaden											
	Wiesentheid (Unterfranken)											
	Wilhelmshafen	Wilhelmshaven										
	Willmersdorf bei Berlin	Wilmersdorf	Wilmersdorf (bei Berlin)									
	Wilmersdorf-Halensee											
	Wilna											
	Wimbledon	Wimbledon (Großbritannien)										
	Windhoek	Windhoek (Deutsch-Südwestafrika)	Windhoek (Namibia)	Windhuk								
	Winterstein (in Thüringen ?)											
	Wirballen (Kybartai)											
	Wismar											
	Wito (Ostafrika)											
	Wittgensdorf											
	Wittislingen											
	Witzenhausen											
	Wladikawkas											
	Wladiwostok											
	Wollin											
	Wolsier (Westhavelland)											
	Woltorf bei Peine											
	Woodlark-Insel											
	Wreschen											
	Wuppertal-Barmen											
	Wurzen											
	Würzburg											
	Yaguarazapa (Paraguay)											
	Yap	Yap, April 1906 - März 1907, 1909										
	Yaunde											
	Yenangyoung (Burma)											
	Yendi (Uendi)											
	Yokohama	Yokohama (Japan)										
	Yukatan											
	Zacatecas											
	Zanzibar											
	Zavod											
	Zeitz											
	Zentral-Australien											
	Zentral-Brasilien											
	Zentralafrika											
	Zernsdorf (Königswusterhausen)											
	Zibelle (Oberlausitz)											
	Ziersdorf (Mecklenburg-Schwerin)											
	Zivilsk (Gouvernement Kasan)											
	Zoeschen (Zöschen)											
	Zondab-Revier (Südafrika)											
	Zoppot, (nicht: Berlin-Grunewald)											
	Zuni Pueblo											
	Zweibrücken											
	Zwickau (Sachsen)											
	Zöschen (bei Merseburg)											
	Zürich	Zürich (Schweiz)										
	am Kilimandjaro											
	an den Banjo-Bergen (bei Banjo/Banyo)											
	oberer Mungo (Kamerun)											
	südliches Afrika											
	westlicher Teil von Kambodscha											
	Ägypten	Ägypten, Nubien										
	Äthiopien											
	Österreich											
	Überlingen am Bodensee											
